{
  "type": "FeatureCollection",
  "properties": {
    "disclaimer": "AI-estimated / approximate parcel boundaries for visualisation and planning exploration only. NOT legally valid cadastral boundaries. Areas and perimeters are derived from pixel geometry and either embedded GeoTIFF spatial tags (when present) or an assumed ground sample distance (GSD) \u2014 see area_source in the response.",
    "coordinate_system": "image_pixels",
    "image_width_px": 600,
    "image_height_px": 338,
    "gsd_m_per_px": 0.1,
    "area_source": "estimated",
    "georeferencing": {
      "georeferenced": false,
      "gsd_x": null,
      "gsd_y": null,
      "gsd": null,
      "crs_hint": null,
      "detail": "No embedded spatial information found.",
      "rotated": false,
      "source": "none"
    }
  },
  "features": [
    {
      "type": "Feature",
      "properties": {
        "parcel_id": "P-001",
        "area_m2_estimated": 62.52,
        "area_ha_estimated": 0.0063,
        "perimeter_m_estimated": 59.97,
        "confidence_approx": 0.581,
        "method": "classical-watershed-contours",
        "disclaimer": "AI-estimated/approximate \u2014 not a legal cadastral boundary."
      },
      "geometry": {
        "type": "Polygon",
        "coordinates": [
          [
            [
              110.0,
              147.0
            ],
            [
              192.0,
              282.0
            ],
            [
              217.0,
              298.0
            ],
            [
              218.0,
              321.0
            ],
            [
              228.0,
              294.0
            ],
            [
              284.0,
              334.0
            ],
            [
              271.0,
              282.0
            ],
            [
              222.0,
              268.0
            ],
            [
              216.0,
              237.0
            ],
            [
              192.0,
              221.0
            ],
            [
              198.0,
              206.0
            ],
            [
              148.0,
              191.0
            ],
            [
              110.0,
              147.0
            ]
          ]
        ]
      }
    },
    {
      "type": "Feature",
      "properties": {
        "parcel_id": "P-002",
        "area_m2_estimated": 53.15,
        "area_ha_estimated": 0.0053,
        "perimeter_m_estimated": 55.35,
        "confidence_approx": 0.57,
        "method": "classical-watershed-contours",
        "disclaimer": "AI-estimated/approximate \u2014 not a legal cadastral boundary."
      },
      "geometry": {
        "type": "Polygon",
        "coordinates": [
          [
            [
              261.0,
              1.0
            ],
            [
              232.0,
              1.0
            ],
            [
              219.0,
              20.0
            ],
            [
              215.0,
              75.0
            ],
            [
              194.0,
              74.0
            ],
            [
              199.0,
              57.0
            ],
            [
              167.0,
              64.0
            ],
            [
              169.0,
              86.0
            ],
            [
              144.0,
              87.0
            ],
            [
              148.0,
              101.0
            ],
            [
              204.0,
              103.0
            ],
            [
              207.0,
              122.0
            ],
            [
              247.0,
              102.0
            ],
            [
              263.0,
              113.0
            ],
            [
              239.0,
              78.0
            ],
            [
              255.0,
              57.0
            ],
            [
              233.0,
              42.0
            ],
            [
              253.0,
              28.0
            ],
            [
              234.0,
              21.0
            ],
            [
              261.0,
              1.0
            ]
          ]
        ]
      }
    },
    {
      "type": "Feature",
      "properties": {
        "parcel_id": "P-003",
        "area_m2_estimated": 36.66,
        "area_ha_estimated": 0.0037,
        "perimeter_m_estimated": 30.77,
        "confidence_approx": 0.744,
        "method": "classical-watershed-contours",
        "disclaimer": "AI-estimated/approximate \u2014 not a legal cadastral boundary."
      },
      "geometry": {
        "type": "Polygon",
        "coordinates": [
          [
            [
              453.0,
              1.0
            ],
            [
              397.0,
              1.0
            ],
            [
              368.0,
              19.0
            ],
            [
              363.0,
              32.0
            ],
            [
              389.0,
              42.0
            ],
            [
              380.0,
              48.0
            ],
            [
              386.0,
              78.0
            ],
            [
              408.0,
              78.0
            ],
            [
              403.0,
              54.0
            ],
            [
              422.0,
              51.0
            ],
            [
              440.0,
              38.0
            ],
            [
              433.0,
              22.0
            ],
            [
              453.0,
              1.0
            ]
          ]
        ]
      }
    },
    {
      "type": "Feature",
      "properties": {
        "parcel_id": "P-004",
        "area_m2_estimated": 27.7,
        "area_ha_estimated": 0.0028,
        "perimeter_m_estimated": 32.4,
        "confidence_approx": 0.622,
        "method": "classical-watershed-contours",
        "disclaimer": "AI-estimated/approximate \u2014 not a legal cadastral boundary."
      },
      "geometry": {
        "type": "Polygon",
        "coordinates": [
          [
            [
              93.0,
              32.0
            ],
            [
              96.0,
              40.0
            ],
            [
              84.0,
              51.0
            ],
            [
              101.0,
              67.0
            ],
            [
              95.0,
              75.0
            ],
            [
              105.0,
              94.0
            ],
            [
              101.0,
              101.0
            ],
            [
              120.0,
              131.0
            ],
            [
              132.0,
              133.0
            ],
            [
              128.0,
              128.0
            ],
            [
              156.0,
              103.0
            ],
            [
              146.0,
              101.0
            ],
            [
              143.0,
              88.0
            ],
            [
              119.0,
              89.0
            ],
            [
              118.0,
              78.0
            ],
            [
              132.0,
              81.0
            ],
            [
              128.0,
              59.0
            ],
            [
              113.0,
              55.0
            ],
            [
              99.0,
              31.0
            ],
            [
              93.0,
              32.0
            ]
          ]
        ]
      }
    },
    {
      "type": "Feature",
      "properties": {
        "parcel_id": "P-005",
        "area_m2_estimated": 27.06,
        "area_ha_estimated": 0.0027,
        "perimeter_m_estimated": 28.49,
        "confidence_approx": 0.684,
        "method": "classical-watershed-contours",
        "disclaimer": "AI-estimated/approximate \u2014 not a legal cadastral boundary."
      },
      "geometry": {
        "type": "Polygon",
        "coordinates": [
          [
            [
              58.0,
              261.0
            ],
            [
              53.0,
              268.0
            ],
            [
              67.0,
              290.0
            ],
            [
              58.0,
              298.0
            ],
            [
              64.0,
              299.0
            ],
            [
              72.0,
              316.0
            ],
            [
              64.0,
              323.0
            ],
            [
              65.0,
              336.0
            ],
            [
              103.0,
              336.0
            ],
            [
              102.0,
              302.0
            ],
            [
              117.0,
              299.0
            ],
            [
              105.0,
              293.0
            ],
            [
              112.0,
              290.0
            ],
            [
              114.0,
              279.0
            ],
            [
              104.0,
              274.0
            ],
            [
              84.0,
              280.0
            ],
            [
              72.0,
              271.0
            ],
            [
              71.0,
              261.0
            ],
            [
              58.0,
              261.0
            ]
          ]
        ]
      }
    },
    {
      "type": "Feature",
      "properties": {
        "parcel_id": "P-006",
        "area_m2_estimated": 22.17,
        "area_ha_estimated": 0.0022,
        "perimeter_m_estimated": 27.95,
        "confidence_approx": 0.633,
        "method": "classical-watershed-contours",
        "disclaimer": "AI-estimated/approximate \u2014 not a legal cadastral boundary."
      },
      "geometry": {
        "type": "Polygon",
        "coordinates": [
          [
            [
              247.0,
              104.0
            ],
            [
              255.0,
              122.0
            ],
            [
              247.0,
              135.0
            ],
            [
              255.0,
              140.0
            ],
            [
              257.0,
              153.0
            ],
            [
              264.0,
              140.0
            ],
            [
              280.0,
              135.0
            ],
            [
              285.0,
              162.0
            ],
            [
              296.0,
              166.0
            ],
            [
              293.0,
              154.0
            ],
            [
              307.0,
              155.0
            ],
            [
              305.0,
              139.0
            ],
            [
              314.0,
              132.0
            ],
            [
              289.0,
              107.0
            ],
            [
              291.0,
              100.0
            ],
            [
              267.0,
              105.0
            ],
            [
              263.0,
              115.0
            ],
            [
              247.0,
              104.0
            ]
          ]
        ]
      }
    },
    {
      "type": "Feature",
      "properties": {
        "parcel_id": "P-007",
        "area_m2_estimated": 21.3,
        "area_ha_estimated": 0.0021,
        "perimeter_m_estimated": 35.35,
        "confidence_approx": 0.529,
        "method": "classical-watershed-contours",
        "disclaimer": "AI-estimated/approximate \u2014 not a legal cadastral boundary."
      },
      "geometry": {
        "type": "Polygon",
        "coordinates": [
          [
            [
              464.0,
              205.0
            ],
            [
              464.0,
              239.0
            ],
            [
              458.0,
              246.0
            ],
            [
              450.0,
              241.0
            ],
            [
              448.0,
              263.0
            ],
            [
              451.0,
              252.0
            ],
            [
              460.0,
              272.0
            ],
            [
              475.0,
              278.0
            ],
            [
              491.0,
              264.0
            ],
            [
              503.0,
              264.0
            ],
            [
              506.0,
              252.0
            ],
            [
              525.0,
              246.0
            ],
            [
              516.0,
              244.0
            ],
            [
              520.0,
              228.0
            ],
            [
              513.0,
              219.0
            ],
            [
              504.0,
              222.0
            ],
            [
              503.0,
              248.0
            ],
            [
              494.0,
              238.0
            ],
            [
              474.0,
              245.0
            ],
            [
              478.0,
              230.0
            ],
            [
              467.0,
              231.0
            ],
            [
              470.0,
              208.0
            ],
            [
              464.0,
              205.0
            ]
          ]
        ]
      }
    },
    {
      "type": "Feature",
      "properties": {
        "parcel_id": "P-008",
        "area_m2_estimated": 21.05,
        "area_ha_estimated": 0.0021,
        "perimeter_m_estimated": 26.42,
        "confidence_approx": 0.648,
        "method": "classical-watershed-contours",
        "disclaimer": "AI-estimated/approximate \u2014 not a legal cadastral boundary."
      },
      "geometry": {
        "type": "Polygon",
        "coordinates": [
          [
            [
              291.0,
              321.0
            ],
            [
              299.0,
              328.0
            ],
            [
              312.0,
              321.0
            ],
            [
              322.0,
              323.0
            ],
            [
              335.0,
              312.0
            ],
            [
              347.0,
              322.0
            ],
            [
              358.0,
              315.0
            ],
            [
              365.0,
              323.0
            ],
            [
              369.0,
              287.0
            ],
            [
              358.0,
              286.0
            ],
            [
              347.0,
              293.0
            ],
            [
              340.0,
              287.0
            ],
            [
              342.0,
              282.0
            ],
            [
              325.0,
              282.0
            ],
            [
              328.0,
              276.0
            ],
            [
              319.0,
              276.0
            ],
            [
              315.0,
              291.0
            ],
            [
              321.0,
              300.0
            ],
            [
              309.0,
              302.0
            ],
            [
              291.0,
              321.0
            ]
          ]
        ]
      }
    },
    {
      "type": "Feature",
      "properties": {
        "parcel_id": "P-009",
        "area_m2_estimated": 20.93,
        "area_ha_estimated": 0.0021,
        "perimeter_m_estimated": 24.64,
        "confidence_approx": 0.687,
        "method": "classical-watershed-contours",
        "disclaimer": "AI-estimated/approximate \u2014 not a legal cadastral boundary."
      },
      "geometry": {
        "type": "Polygon",
        "coordinates": [
          [
            [
              521.0,
              158.0
            ],
            [
              504.0,
              158.0
            ],
            [
              501.0,
              152.0
            ],
            [
              487.0,
              151.0
            ],
            [
              481.0,
              175.0
            ],
            [
              487.0,
              179.0
            ],
            [
              473.0,
              180.0
            ],
            [
              468.0,
              195.0
            ],
            [
              471.0,
              202.0
            ],
            [
              465.0,
              204.0
            ],
            [
              472.0,
              208.0
            ],
            [
              470.0,
              217.0
            ],
            [
              479.0,
              215.0
            ],
            [
              489.0,
              199.0
            ],
            [
              491.0,
              203.0
            ],
            [
              499.0,
              199.0
            ],
            [
              500.0,
              189.0
            ],
            [
              507.0,
              199.0
            ],
            [
              515.0,
              195.0
            ],
            [
              519.0,
              182.0
            ],
            [
              527.0,
              177.0
            ],
            [
              521.0,
              158.0
            ]
          ]
        ]
      }
    },
    {
      "type": "Feature",
      "properties": {
        "parcel_id": "P-010",
        "area_m2_estimated": 17.88,
        "area_ha_estimated": 0.0018,
        "perimeter_m_estimated": 22.26,
        "confidence_approx": 0.698,
        "method": "classical-watershed-contours",
        "disclaimer": "AI-estimated/approximate \u2014 not a legal cadastral boundary."
      },
      "geometry": {
        "type": "Polygon",
        "coordinates": [
          [
            [
              56.0,
              29.0
            ],
            [
              63.0,
              35.0
            ],
            [
              81.0,
              25.0
            ],
            [
              90.0,
              35.0
            ],
            [
              99.0,
              29.0
            ],
            [
              101.0,
              40.0
            ],
            [
              107.0,
              39.0
            ],
            [
              113.0,
              28.0
            ],
            [
              111.0,
              20.0
            ],
            [
              131.0,
              1.0
            ],
            [
              59.0,
              1.0
            ],
            [
              64.0,
              12.0
            ],
            [
              56.0,
              29.0
            ]
          ]
        ]
      }
    },
    {
      "type": "Feature",
      "properties": {
        "parcel_id": "P-011",
        "area_m2_estimated": 16.14,
        "area_ha_estimated": 0.0016,
        "perimeter_m_estimated": 32.36,
        "confidence_approx": 0.509,
        "method": "classical-watershed-contours",
        "disclaimer": "AI-estimated/approximate \u2014 not a legal cadastral boundary."
      },
      "geometry": {
        "type": "Polygon",
        "coordinates": [
          [
            [
              256.0,
              59.0
            ],
            [
              271.0,
              79.0
            ],
            [
              273.0,
              67.0
            ],
            [
              285.0,
              64.0
            ],
            [
              292.0,
              71.0
            ],
            [
              298.0,
              59.0
            ],
            [
              336.0,
              52.0
            ],
            [
              342.0,
              44.0
            ],
            [
              285.0,
              45.0
            ],
            [
              282.0,
              32.0
            ],
            [
              293.0,
              22.0
            ],
            [
              286.0,
              22.0
            ],
            [
              279.0,
              2.0
            ],
            [
              272.0,
              1.0
            ],
            [
              275.0,
              24.0
            ],
            [
              268.0,
              26.0
            ],
            [
              278.0,
              49.0
            ],
            [
              270.0,
              58.0
            ],
            [
              256.0,
              59.0
            ]
          ]
        ]
      }
    },
    {
      "type": "Feature",
      "properties": {
        "parcel_id": "P-012",
        "area_m2_estimated": 13.11,
        "area_ha_estimated": 0.0013,
        "perimeter_m_estimated": 18.55,
        "confidence_approx": 0.71,
        "method": "classical-watershed-contours",
        "disclaimer": "AI-estimated/approximate \u2014 not a legal cadastral boundary."
      },
      "geometry": {
        "type": "Polygon",
        "coordinates": [
          [
            [
              463.0,
              76.0
            ],
            [
              447.0,
              71.0
            ],
            [
              444.0,
              62.0
            ],
            [
              431.0,
              67.0
            ],
            [
              428.0,
              94.0
            ],
            [
              414.0,
              109.0
            ],
            [
              422.0,
              112.0
            ],
            [
              429.0,
              111.0
            ],
            [
              431.0,
              106.0
            ],
            [
              444.0,
              105.0
            ],
            [
              454.0,
              114.0
            ],
            [
              460.0,
              114.0
            ],
            [
              460.0,
              110.0
            ],
            [
              453.0,
              107.0
            ],
            [
              463.0,
              76.0
            ]
          ]
        ]
      }
    },
    {
      "type": "Feature",
      "properties": {
        "parcel_id": "P-013",
        "area_m2_estimated": 11.71,
        "area_ha_estimated": 0.0012,
        "perimeter_m_estimated": 16.63,
        "confidence_approx": 0.747,
        "method": "classical-watershed-contours",
        "disclaimer": "AI-estimated/approximate \u2014 not a legal cadastral boundary."
      },
      "geometry": {
        "type": "Polygon",
        "coordinates": [
          [
            [
              70.0,
              208.0
            ],
            [
              58.0,
              221.0
            ],
            [
              44.0,
              227.0
            ],
            [
              52.0,
              249.0
            ],
            [
              51.0,
              256.0
            ],
            [
              55.0,
              261.0
            ],
            [
              72.0,
              253.0
            ],
            [
              81.0,
              236.0
            ],
            [
              86.0,
              247.0
            ],
            [
              89.0,
              247.0
            ],
            [
              70.0,
              208.0
            ]
          ]
        ]
      }
    },
    {
      "type": "Feature",
      "properties": {
        "parcel_id": "P-014",
        "area_m2_estimated": 10.26,
        "area_ha_estimated": 0.001,
        "perimeter_m_estimated": 20.0,
        "confidence_approx": 0.594,
        "method": "classical-watershed-contours",
        "disclaimer": "AI-estimated/approximate \u2014 not a legal cadastral boundary."
      },
      "geometry": {
        "type": "Polygon",
        "coordinates": [
          [
            [
              204.0,
              126.0
            ],
            [
              170.0,
              144.0
            ],
            [
              176.0,
              154.0
            ],
            [
              190.0,
              152.0
            ],
            [
              182.0,
              161.0
            ],
            [
              186.0,
              168.0
            ],
            [
              179.0,
              178.0
            ],
            [
              183.0,
              182.0
            ],
            [
              191.0,
              183.0
            ],
            [
              199.0,
              158.0
            ],
            [
              207.0,
              169.0
            ],
            [
              199.0,
              153.0
            ],
            [
              208.0,
              143.0
            ],
            [
              209.0,
              134.0
            ],
            [
              204.0,
              126.0
            ]
          ]
        ]
      }
    },
    {
      "type": "Feature",
      "properties": {
        "parcel_id": "P-015",
        "area_m2_estimated": 10.06,
        "area_ha_estimated": 0.001,
        "perimeter_m_estimated": 20.34,
        "confidence_approx": 0.582,
        "method": "classical-watershed-contours",
        "disclaimer": "AI-estimated/approximate \u2014 not a legal cadastral boundary."
      },
      "geometry": {
        "type": "Polygon",
        "coordinates": [
          [
            [
              57.0,
              117.0
            ],
            [
              65.0,
              117.0
            ],
            [
              67.0,
              120.0
            ],
            [
              61.0,
              122.0
            ],
            [
              79.0,
              139.0
            ],
            [
              85.0,
              131.0
            ],
            [
              106.0,
              151.0
            ],
            [
              109.0,
              146.0
            ],
            [
              86.0,
              125.0
            ],
            [
              107.0,
              115.0
            ],
            [
              105.0,
              105.0
            ],
            [
              94.0,
              102.0
            ],
            [
              57.0,
              117.0
            ]
          ]
        ]
      }
    },
    {
      "type": "Feature",
      "properties": {
        "parcel_id": "P-016",
        "area_m2_estimated": 10.03,
        "area_ha_estimated": 0.001,
        "perimeter_m_estimated": 15.56,
        "confidence_approx": 0.737,
        "method": "classical-watershed-contours",
        "disclaimer": "AI-estimated/approximate \u2014 not a legal cadastral boundary."
      },
      "geometry": {
        "type": "Polygon",
        "coordinates": [
          [
            [
              91.0,
              190.0
            ],
            [
              86.0,
              195.0
            ],
            [
              91.0,
              219.0
            ],
            [
              89.0,
              224.0
            ],
            [
              101.0,
              236.0
            ],
            [
              101.0,
              237.5
            ],
            [
              110.0,
              233.0
            ],
            [
              117.0,
              224.0
            ],
            [
              124.0,
              223.0
            ],
            [
              122.0,
              216.0
            ],
            [
              115.0,
              219.0
            ],
            [
              111.0,
              214.0
            ],
            [
              119.0,
              208.0
            ],
            [
              114.0,
              196.0
            ],
            [
              99.0,
              199.0
            ],
            [
              91.0,
              190.0
            ]
          ]
        ]
      }
    },
    {
      "type": "Feature",
      "properties": {
        "parcel_id": "P-017",
        "area_m2_estimated": 9.95,
        "area_ha_estimated": 0.001,
        "perimeter_m_estimated": 15.48,
        "confidence_approx": 0.737,
        "method": "classical-watershed-contours",
        "disclaimer": "AI-estimated/approximate \u2014 not a legal cadastral boundary."
      },
      "geometry": {
        "type": "Polygon",
        "coordinates": [
          [
            [
              16.0,
              182.0
            ],
            [
              17.0,
              219.0
            ],
            [
              21.0,
              220.0
            ],
            [
              25.0,
              227.0
            ],
            [
              28.0,
              225.0
            ],
            [
              37.0,
              230.0
            ],
            [
              41.0,
              229.0
            ],
            [
              48.0,
              222.0
            ],
            [
              45.0,
              218.0
            ],
            [
              51.0,
              217.0
            ],
            [
              43.0,
              210.0
            ],
            [
              38.0,
              189.0
            ],
            [
              35.0,
              193.0
            ],
            [
              33.0,
              187.0
            ],
            [
              30.0,
              192.0
            ],
            [
              16.0,
              182.0
            ]
          ]
        ]
      }
    },
    {
      "type": "Feature",
      "properties": {
        "parcel_id": "P-018",
        "area_m2_estimated": 9.77,
        "area_ha_estimated": 0.001,
        "perimeter_m_estimated": 25.18,
        "confidence_approx": 0.501,
        "method": "classical-watershed-contours",
        "disclaimer": "AI-estimated/approximate \u2014 not a legal cadastral boundary."
      },
      "geometry": {
        "type": "Polygon",
        "coordinates": [
          [
            [
              426.0,
              258.0
            ],
            [
              416.0,
              259.0
            ],
            [
              402.0,
              275.0
            ],
            [
              399.0,
              263.0
            ],
            [
              398.0,
              272.0
            ],
            [
              390.0,
              274.0
            ],
            [
              395.0,
              277.0
            ],
            [
              394.0,
              290.0
            ],
            [
              378.0,
              326.0
            ],
            [
              399.0,
              298.0
            ],
            [
              403.0,
              306.0
            ],
            [
              408.0,
              295.0
            ],
            [
              418.0,
              300.0
            ],
            [
              428.0,
              297.0
            ],
            [
              417.0,
              293.0
            ],
            [
              411.0,
              284.0
            ],
            [
              427.0,
              267.0
            ],
            [
              426.0,
              258.0
            ]
          ]
        ]
      }
    },
    {
      "type": "Feature",
      "properties": {
        "parcel_id": "P-019",
        "area_m2_estimated": 9.52,
        "area_ha_estimated": 0.001,
        "perimeter_m_estimated": 14.69,
        "confidence_approx": 0.76,
        "method": "classical-watershed-contours",
        "disclaimer": "AI-estimated/approximate \u2014 not a legal cadastral boundary."
      },
      "geometry": {
        "type": "Polygon",
        "coordinates": [
          [
            [
              179.0,
              290.0
            ],
            [
              173.0,
              294.0
            ],
            [
              170.0,
              293.0
            ],
            [
              153.0,
              305.0
            ],
            [
              153.0,
              311.0
            ],
            [
              159.0,
              313.0
            ],
            [
              158.0,
              324.0
            ],
            [
              160.0,
              326.0
            ],
            [
              157.0,
              329.0
            ],
            [
              154.0,
              328.0
            ],
            [
              154.0,
              336.0
            ],
            [
              180.0,
              336.0
            ],
            [
              178.0,
              309.0
            ],
            [
              181.0,
              306.0
            ],
            [
              181.0,
              292.0
            ],
            [
              179.0,
              290.0
            ]
          ]
        ]
      }
    },
    {
      "type": "Feature",
      "properties": {
        "parcel_id": "P-020",
        "area_m2_estimated": 9.31,
        "area_ha_estimated": 0.0009,
        "perimeter_m_estimated": 20.54,
        "confidence_approx": 0.561,
        "method": "classical-watershed-contours",
        "disclaimer": "AI-estimated/approximate \u2014 not a legal cadastral boundary."
      },
      "geometry": {
        "type": "Polygon",
        "coordinates": [
          [
            [
              563.0,
              200.0
            ],
            [
              564.0,
              210.0
            ],
            [
              572.0,
              212.0
            ],
            [
              576.0,
              220.0
            ],
            [
              569.0,
              222.0
            ],
            [
              567.0,
              232.0
            ],
            [
              555.0,
              233.0
            ],
            [
              552.0,
              237.0
            ],
            [
              575.0,
              232.0
            ],
            [
              584.0,
              237.0
            ],
            [
              593.0,
              231.0
            ],
            [
              598.0,
              244.0
            ],
            [
              598.0,
              223.0
            ],
            [
              592.0,
              224.0
            ],
            [
              587.0,
              217.0
            ],
            [
              593.0,
              210.0
            ],
            [
              588.0,
              196.0
            ],
            [
              563.0,
              200.0
            ]
          ]
        ]
      }
    },
    {
      "type": "Feature",
      "properties": {
        "parcel_id": "P-021",
        "area_m2_estimated": 8.95,
        "area_ha_estimated": 0.0009,
        "perimeter_m_estimated": 12.33,
        "confidence_approx": 0.811,
        "method": "classical-watershed-contours",
        "disclaimer": "AI-estimated/approximate \u2014 not a legal cadastral boundary."
      },
      "geometry": {
        "type": "Polygon",
        "coordinates": [
          [
            [
              386.0,
              136.0
            ],
            [
              389.0,
              149.0
            ],
            [
              399.0,
              147.0
            ],
            [
              404.0,
              152.0
            ],
            [
              418.0,
              154.0
            ],
            [
              426.0,
              150.0
            ],
            [
              421.0,
              137.0
            ],
            [
              422.0,
              132.0
            ],
            [
              417.0,
              122.0
            ],
            [
              406.0,
              119.0
            ],
            [
              403.0,
              126.0
            ],
            [
              399.0,
              126.0
            ],
            [
              386.0,
              136.0
            ]
          ]
        ]
      }
    },
    {
      "type": "Feature",
      "properties": {
        "parcel_id": "P-022",
        "area_m2_estimated": 8.46,
        "area_ha_estimated": 0.0008,
        "perimeter_m_estimated": 20.14,
        "confidence_approx": 0.549,
        "method": "classical-watershed-contours",
        "disclaimer": "AI-estimated/approximate \u2014 not a legal cadastral boundary."
      },
      "geometry": {
        "type": "Polygon",
        "coordinates": [
          [
            [
              551.0,
              1.0
            ],
            [
              563.0,
              5.0
            ],
            [
              558.0,
              15.0
            ],
            [
              561.0,
              21.0
            ],
            [
              571.0,
              24.0
            ],
            [
              561.0,
              26.0
            ],
            [
              567.0,
              28.0
            ],
            [
              567.0,
              37.0
            ],
            [
              582.0,
              38.0
            ],
            [
              593.0,
              26.0
            ],
            [
              598.0,
              27.0
            ],
            [
              598.0,
              7.0
            ],
            [
              594.0,
              8.0
            ],
            [
              594.0,
              19.0
            ],
            [
              589.0,
              25.0
            ],
            [
              584.0,
              14.0
            ],
            [
              570.0,
              4.0
            ],
            [
              573.0,
              1.0
            ],
            [
              551.0,
              1.0
            ]
          ]
        ]
      }
    },
    {
      "type": "Feature",
      "properties": {
        "parcel_id": "P-023",
        "area_m2_estimated": 7.96,
        "area_ha_estimated": 0.0008,
        "perimeter_m_estimated": 15.84,
        "confidence_approx": 0.646,
        "method": "classical-watershed-contours",
        "disclaimer": "AI-estimated/approximate \u2014 not a legal cadastral boundary."
      },
      "geometry": {
        "type": "Polygon",
        "coordinates": [
          [
            [
              382.0,
              40.0
            ],
            [
              369.0,
              40.0
            ],
            [
              365.0,
              33.0
            ],
            [
              354.0,
              34.0
            ],
            [
              352.0,
              38.0
            ],
            [
              346.0,
              37.0
            ],
            [
              342.0,
              42.0
            ],
            [
              344.0,
              44.0
            ],
            [
              340.0,
              52.0
            ],
            [
              333.0,
              54.0
            ],
            [
              336.0,
              58.0
            ],
            [
              345.0,
              60.0
            ],
            [
              347.0,
              72.0
            ],
            [
              350.0,
              63.0
            ],
            [
              352.0,
              67.0
            ],
            [
              362.0,
              67.0
            ],
            [
              362.0,
              58.0
            ],
            [
              365.0,
              56.0
            ],
            [
              363.0,
              51.0
            ],
            [
              382.0,
              40.0
            ]
          ]
        ]
      }
    },
    {
      "type": "Feature",
      "properties": {
        "parcel_id": "P-024",
        "area_m2_estimated": 7.82,
        "area_ha_estimated": 0.0008,
        "perimeter_m_estimated": 17.92,
        "confidence_approx": 0.579,
        "method": "classical-watershed-contours",
        "disclaimer": "AI-estimated/approximate \u2014 not a legal cadastral boundary."
      },
      "geometry": {
        "type": "Polygon",
        "coordinates": [
          [
            [
              59.0,
              85.0
            ],
            [
              55.0,
              69.0
            ],
            [
              44.0,
              69.0
            ],
            [
              42.0,
              65.0
            ],
            [
              36.0,
              67.0
            ],
            [
              34.0,
              86.0
            ],
            [
              23.0,
              87.0
            ],
            [
              19.0,
              79.0
            ],
            [
              1.0,
              78.0
            ],
            [
              1.0,
              82.0
            ],
            [
              33.0,
              92.0
            ],
            [
              49.0,
              102.0
            ],
            [
              53.0,
              96.0
            ],
            [
              51.0,
              84.0
            ],
            [
              59.0,
              85.0
            ]
          ]
        ]
      }
    },
    {
      "type": "Feature",
      "properties": {
        "parcel_id": "P-025",
        "area_m2_estimated": 7.77,
        "area_ha_estimated": 0.0008,
        "perimeter_m_estimated": 23.84,
        "confidence_approx": 0.483,
        "method": "classical-watershed-contours",
        "disclaimer": "AI-estimated/approximate \u2014 not a legal cadastral boundary."
      },
      "geometry": {
        "type": "Polygon",
        "coordinates": [
          [
            [
              310.0,
              218.0
            ],
            [
              314.0,
              222.0
            ],
            [
              328.0,
              218.0
            ],
            [
              345.0,
              235.0
            ],
            [
              318.1,
              251.0
            ],
            [
              337.0,
              252.0
            ],
            [
              339.0,
              263.0
            ],
            [
              346.0,
              262.0
            ],
            [
              351.0,
              269.0
            ],
            [
              358.0,
              254.0
            ],
            [
              370.0,
              251.0
            ],
            [
              345.0,
              244.0
            ],
            [
              353.0,
              233.0
            ],
            [
              329.0,
              216.0
            ],
            [
              310.0,
              218.0
            ]
          ]
        ]
      }
    },
    {
      "type": "Feature",
      "properties": {
        "parcel_id": "P-026",
        "area_m2_estimated": 7.44,
        "area_ha_estimated": 0.0007,
        "perimeter_m_estimated": 16.94,
        "confidence_approx": 0.593,
        "method": "classical-watershed-contours",
        "disclaimer": "AI-estimated/approximate \u2014 not a legal cadastral boundary."
      },
      "geometry": {
        "type": "Polygon",
        "coordinates": [
          [
            [
              373.0,
              336.0
            ],
            [
              432.0,
              336.0
            ],
            [
              432.0,
              333.0
            ],
            [
              417.0,
              328.0
            ],
            [
              413.0,
              331.0
            ],
            [
              412.0,
              322.0
            ],
            [
              398.0,
              316.0
            ],
            [
              399.0,
              300.0
            ],
            [
              384.0,
              323.0
            ],
            [
              385.0,
              326.0
            ],
            [
              373.0,
              336.0
            ]
          ]
        ]
      }
    }
  ]
}