{
  "type": "FeatureCollection",
  "properties": {
    "disclaimer": "AI-estimated / approximate parcel boundaries for visualisation and planning exploration only. NOT legally valid cadastral boundaries. Areas and perimeters are derived from pixel geometry and either embedded GeoTIFF spatial tags (when present) or an assumed ground sample distance (GSD) \u2014 see area_source in the response.",
    "coordinate_system": "image_pixels",
    "image_width_px": 2048,
    "image_height_px": 1534,
    "gsd_m_per_px": 0.1,
    "area_source": "estimated",
    "georeferencing": {
      "georeferenced": false,
      "gsd_x": null,
      "gsd_y": null,
      "gsd": null,
      "crs_hint": null,
      "detail": "No embedded spatial information found.",
      "rotated": false,
      "source": "none"
    }
  },
  "features": [
    {
      "type": "Feature",
      "properties": {
        "parcel_id": "P-001",
        "area_m2_estimated": 405.99,
        "area_ha_estimated": 0.0406,
        "perimeter_m_estimated": 131.95,
        "confidence_approx": 0.592,
        "method": "classical-watershed-contours",
        "disclaimer": "AI-estimated/approximate \u2014 not a legal cadastral boundary."
      },
      "geometry": {
        "type": "Polygon",
        "coordinates": [
          [
            [
              1232.6,
              1244.2
            ],
            [
              1105.9,
              1240.3
            ],
            [
              1163.5,
              1148.2
            ],
            [
              1105.9,
              1153.3
            ],
            [
              1071.4,
              1082.9
            ],
            [
              1047.0,
              1095.7
            ],
            [
              1071.4,
              1132.8
            ],
            [
              1033.0,
              1152.0
            ],
            [
              984.3,
              1093.1
            ],
            [
              878.1,
              1153.3
            ],
            [
              913.9,
              1246.7
            ],
            [
              828.2,
              1278.7
            ],
            [
              986.9,
              1326.1
            ],
            [
              1045.8,
              1258.2
            ],
            [
              1232.6,
              1244.2
            ]
          ]
        ]
      }
    },
    {
      "type": "Feature",
      "properties": {
        "parcel_id": "P-002",
        "area_m2_estimated": 379.73,
        "area_ha_estimated": 0.038,
        "perimeter_m_estimated": 181.27,
        "confidence_approx": 0.484,
        "method": "classical-watershed-contours",
        "disclaimer": "AI-estimated/approximate \u2014 not a legal cadastral boundary."
      },
      "geometry": {
        "type": "Polygon",
        "coordinates": [
          [
            [
              1369.6,
              1292.8
            ],
            [
              2045.4,
              1304.3
            ],
            [
              2030.1,
              1258.2
            ],
            [
              1959.7,
              1292.8
            ],
            [
              1674.2,
              1274.9
            ],
            [
              1619.2,
              1217.3
            ],
            [
              1673.0,
              1189.1
            ],
            [
              1673.0,
              1121.3
            ],
            [
              1585.9,
              1104.6
            ],
            [
              1532.2,
              1125.1
            ],
            [
              1548.8,
              1214.7
            ],
            [
              1513.0,
              1227.5
            ],
            [
              1541.1,
              1236.5
            ],
            [
              1373.4,
              1250.6
            ],
            [
              1369.6,
              1292.8
            ]
          ]
        ]
      }
    },
    {
      "type": "Feature",
      "properties": {
        "parcel_id": "P-003",
        "area_m2_estimated": 309.26,
        "area_ha_estimated": 0.0309,
        "perimeter_m_estimated": 98.98,
        "confidence_approx": 0.659,
        "method": "classical-watershed-contours",
        "disclaimer": "AI-estimated/approximate \u2014 not a legal cadastral boundary."
      },
      "geometry": {
        "type": "Polygon",
        "coordinates": [
          [
            [
              591.4,
              1239.0
            ],
            [
              624.6,
              1239.0
            ],
            [
              608.0,
              1295.4
            ],
            [
              826.9,
              1280.0
            ],
            [
              817.9,
              1240.3
            ],
            [
              910.1,
              1212.2
            ],
            [
              888.3,
              1171.2
            ],
            [
              791.0,
              1159.7
            ],
            [
              757.8,
              1201.9
            ],
            [
              677.1,
              1088.0
            ],
            [
              679.7,
              1125.1
            ],
            [
              638.7,
              1149.4
            ],
            [
              637.4,
              1217.3
            ],
            [
              591.4,
              1239.0
            ]
          ]
        ]
      }
    },
    {
      "type": "Feature",
      "properties": {
        "parcel_id": "P-004",
        "area_m2_estimated": 267.32,
        "area_ha_estimated": 0.0267,
        "perimeter_m_estimated": 138.4,
        "confidence_approx": 0.497,
        "method": "classical-watershed-contours",
        "disclaimer": "AI-estimated/approximate \u2014 not a legal cadastral boundary."
      },
      "geometry": {
        "type": "Polygon",
        "coordinates": [
          [
            [
              1022.7,
              1003.5
            ],
            [
              842.2,
              992.0
            ],
            [
              835.8,
              956.2
            ],
            [
              753.9,
              994.6
            ],
            [
              596.5,
              971.5
            ],
            [
              425.0,
              992.0
            ],
            [
              472.3,
              1013.8
            ],
            [
              448.0,
              1027.8
            ],
            [
              467.2,
              1052.2
            ],
            [
              651.5,
              1034.2
            ],
            [
              681.0,
              1080.3
            ],
            [
              709.1,
              1016.3
            ],
            [
              993.3,
              1029.1
            ],
            [
              1022.7,
              1003.5
            ]
          ]
        ]
      }
    },
    {
      "type": "Feature",
      "properties": {
        "parcel_id": "P-005",
        "area_m2_estimated": 229.01,
        "area_ha_estimated": 0.0229,
        "perimeter_m_estimated": 111.83,
        "confidence_approx": 0.533,
        "method": "classical-watershed-contours",
        "disclaimer": "AI-estimated/approximate \u2014 not a legal cadastral boundary."
      },
      "geometry": {
        "type": "Polygon",
        "coordinates": [
          [
            [
              128.0,
              857.6
            ],
            [
              133.1,
              880.6
            ],
            [
              170.2,
              869.1
            ],
            [
              166.4,
              919.0
            ],
            [
              129.3,
              919.0
            ],
            [
              131.8,
              935.7
            ],
            [
              276.5,
              944.6
            ],
            [
              220.2,
              958.7
            ],
            [
              234.2,
              986.9
            ],
            [
              204.8,
              989.4
            ],
            [
              227.8,
              1024.0
            ],
            [
              401.9,
              1008.6
            ],
            [
              349.4,
              995.8
            ],
            [
              354.6,
              963.8
            ],
            [
              289.3,
              945.9
            ],
            [
              343.0,
              858.9
            ],
            [
              128.0,
              857.6
            ]
          ]
        ]
      }
    },
    {
      "type": "Feature",
      "properties": {
        "parcel_id": "P-006",
        "area_m2_estimated": 213.65,
        "area_ha_estimated": 0.0214,
        "perimeter_m_estimated": 142.77,
        "confidence_approx": 0.461,
        "method": "classical-watershed-contours",
        "disclaimer": "AI-estimated/approximate \u2014 not a legal cadastral boundary."
      },
      "geometry": {
        "type": "Polygon",
        "coordinates": [
          [
            [
              1530.9,
              414.7
            ],
            [
              1500.2,
              391.7
            ],
            [
              1381.1,
              412.2
            ],
            [
              1361.9,
              375.0
            ],
            [
              1440.0,
              368.6
            ],
            [
              1461.8,
              331.5
            ],
            [
              1321.0,
              322.6
            ],
            [
              1292.8,
              426.2
            ],
            [
              1168.6,
              451.8
            ],
            [
              1283.8,
              455.7
            ],
            [
              1282.6,
              522.2
            ],
            [
              1185.3,
              524.8
            ],
            [
              1281.3,
              532.5
            ],
            [
              1313.3,
              463.4
            ],
            [
              1346.6,
              482.6
            ],
            [
              1355.5,
              445.4
            ],
            [
              1397.8,
              465.9
            ],
            [
              1406.7,
              439.0
            ],
            [
              1530.9,
              414.7
            ]
          ]
        ]
      }
    },
    {
      "type": "Feature",
      "properties": {
        "parcel_id": "P-007",
        "area_m2_estimated": 179.09,
        "area_ha_estimated": 0.0179,
        "perimeter_m_estimated": 73.23,
        "confidence_approx": 0.666,
        "method": "classical-watershed-contours",
        "disclaimer": "AI-estimated/approximate \u2014 not a legal cadastral boundary."
      },
      "geometry": {
        "type": "Polygon",
        "coordinates": [
          [
            [
              432.6,
              149.8
            ],
            [
              423.7,
              179.2
            ],
            [
              446.7,
              192.0
            ],
            [
              426.2,
              216.3
            ],
            [
              427.5,
              254.7
            ],
            [
              495.4,
              298.2
            ],
            [
              472.3,
              309.8
            ],
            [
              490.2,
              339.2
            ],
            [
              622.1,
              314.9
            ],
            [
              606.7,
              300.8
            ],
            [
              532.5,
              297.0
            ],
            [
              541.4,
              193.3
            ],
            [
              506.9,
              148.5
            ],
            [
              432.6,
              149.8
            ]
          ]
        ]
      }
    },
    {
      "type": "Feature",
      "properties": {
        "parcel_id": "P-008",
        "area_m2_estimated": 168.71,
        "area_ha_estimated": 0.0169,
        "perimeter_m_estimated": 58.01,
        "confidence_approx": 0.813,
        "method": "classical-watershed-contours",
        "disclaimer": "AI-estimated/approximate \u2014 not a legal cadastral boundary."
      },
      "geometry": {
        "type": "Polygon",
        "coordinates": [
          [
            [
              290.6,
              1088.0
            ],
            [
              248.3,
              1073.9
            ],
            [
              149.8,
              1121.3
            ],
            [
              121.6,
              1148.2
            ],
            [
              139.5,
              1171.2
            ],
            [
              119.0,
              1205.8
            ],
            [
              167.7,
              1246.7
            ],
            [
              236.8,
              1209.6
            ],
            [
              273.9,
              1173.8
            ],
            [
              247.0,
              1149.4
            ],
            [
              276.5,
              1118.7
            ],
            [
              267.5,
              1103.4
            ],
            [
              290.6,
              1088.0
            ]
          ]
        ]
      }
    },
    {
      "type": "Feature",
      "properties": {
        "parcel_id": "P-009",
        "area_m2_estimated": 152.57,
        "area_ha_estimated": 0.0153,
        "perimeter_m_estimated": 58.33,
        "confidence_approx": 0.767,
        "method": "classical-watershed-contours",
        "disclaimer": "AI-estimated/approximate \u2014 not a legal cadastral boundary."
      },
      "geometry": {
        "type": "Polygon",
        "coordinates": [
          [
            [
              1345.3,
              1308.2
            ],
            [
              1310.7,
              1318.4
            ],
            [
              1313.3,
              1332.5
            ],
            [
              1237.8,
              1323.5
            ],
            [
              1228.8,
              1363.2
            ],
            [
              1198.1,
              1361.9
            ],
            [
              1201.9,
              1443.8
            ],
            [
              1217.3,
              1473.3
            ],
            [
              1278.7,
              1472.0
            ],
            [
              1286.4,
              1445.1
            ],
            [
              1308.2,
              1443.8
            ],
            [
              1310.7,
              1376.0
            ],
            [
              1324.8,
              1353.0
            ],
            [
              1346.6,
              1350.4
            ],
            [
              1345.3,
              1308.2
            ]
          ]
        ]
      }
    },
    {
      "type": "Feature",
      "properties": {
        "parcel_id": "P-010",
        "area_m2_estimated": 146.78,
        "area_ha_estimated": 0.0147,
        "perimeter_m_estimated": 52.06,
        "confidence_approx": 0.811,
        "method": "classical-watershed-contours",
        "disclaimer": "AI-estimated/approximate \u2014 not a legal cadastral boundary."
      },
      "geometry": {
        "type": "Polygon",
        "coordinates": [
          [
            [
              426.2,
              1359.4
            ],
            [
              393.0,
              1378.6
            ],
            [
              320.0,
              1451.5
            ],
            [
              344.3,
              1472.0
            ],
            [
              318.7,
              1506.6
            ],
            [
              339.2,
              1530.9
            ],
            [
              393.0,
              1530.9
            ],
            [
              454.4,
              1460.5
            ],
            [
              436.5,
              1420.8
            ],
            [
              458.2,
              1393.9
            ],
            [
              426.2,
              1359.4
            ]
          ]
        ]
      }
    },
    {
      "type": "Feature",
      "properties": {
        "parcel_id": "P-011",
        "area_m2_estimated": 143.2,
        "area_ha_estimated": 0.0143,
        "perimeter_m_estimated": 62.21,
        "confidence_approx": 0.696,
        "method": "classical-watershed-contours",
        "disclaimer": "AI-estimated/approximate \u2014 not a legal cadastral boundary."
      },
      "geometry": {
        "type": "Polygon",
        "coordinates": [
          [
            [
              1313.3,
              798.7
            ],
            [
              1231.4,
              798.7
            ],
            [
              1225.0,
              851.2
            ],
            [
              1249.3,
              873.0
            ],
            [
              1181.4,
              878.1
            ],
            [
              1182.7,
              915.2
            ],
            [
              1225.0,
              916.5
            ],
            [
              1213.4,
              920.3
            ],
            [
              1214.7,
              954.9
            ],
            [
              1263.4,
              956.2
            ],
            [
              1282.6,
              938.2
            ],
            [
              1318.4,
              935.7
            ],
            [
              1303.0,
              915.2
            ],
            [
              1318.4,
              887.0
            ],
            [
              1303.0,
              835.8
            ],
            [
              1313.3,
              798.7
            ]
          ]
        ]
      }
    },
    {
      "type": "Feature",
      "properties": {
        "parcel_id": "P-012",
        "area_m2_estimated": 139.48,
        "area_ha_estimated": 0.0139,
        "perimeter_m_estimated": 92.33,
        "confidence_approx": 0.509,
        "method": "classical-watershed-contours",
        "disclaimer": "AI-estimated/approximate \u2014 not a legal cadastral boundary."
      },
      "geometry": {
        "type": "Polygon",
        "coordinates": [
          [
            [
              1689.6,
              1070.1
            ],
            [
              1822.7,
              1089.3
            ],
            [
              1838.1,
              1072.6
            ],
            [
              1985.3,
              1073.9
            ],
            [
              2005.8,
              1054.7
            ],
            [
              1824.0,
              1036.8
            ],
            [
              1835.5,
              942.1
            ],
            [
              1793.3,
              943.4
            ],
            [
              1795.8,
              1002.2
            ],
            [
              1748.5,
              1009.9
            ],
            [
              1748.5,
              1030.4
            ],
            [
              1780.5,
              1039.4
            ],
            [
              1752.3,
              1057.3
            ],
            [
              1701.1,
              1048.3
            ],
            [
              1689.6,
              1070.1
            ]
          ]
        ]
      }
    },
    {
      "type": "Feature",
      "properties": {
        "parcel_id": "P-013",
        "area_m2_estimated": 134.99,
        "area_ha_estimated": 0.0135,
        "perimeter_m_estimated": 79.39,
        "confidence_approx": 0.554,
        "method": "classical-watershed-contours",
        "disclaimer": "AI-estimated/approximate \u2014 not a legal cadastral boundary."
      },
      "geometry": {
        "type": "Polygon",
        "coordinates": [
          [
            [
              220.2,
              455.7
            ],
            [
              266.2,
              486.4
            ],
            [
              235.5,
              487.7
            ],
            [
              234.2,
              509.4
            ],
            [
              290.6,
              496.6
            ],
            [
              307.2,
              529.9
            ],
            [
              377.6,
              553.0
            ],
            [
              366.1,
              542.7
            ],
            [
              384.0,
              518.4
            ],
            [
              465.9,
              533.8
            ],
            [
              448.0,
              501.8
            ],
            [
              389.1,
              513.3
            ],
            [
              378.9,
              460.8
            ],
            [
              291.8,
              413.4
            ],
            [
              276.5,
              419.8
            ],
            [
              290.6,
              435.2
            ],
            [
              261.1,
              441.6
            ],
            [
              268.8,
              455.7
            ],
            [
              248.3,
              442.9
            ],
            [
              220.2,
              455.7
            ]
          ]
        ]
      }
    },
    {
      "type": "Feature",
      "properties": {
        "parcel_id": "P-014",
        "area_m2_estimated": 132.67,
        "area_ha_estimated": 0.0133,
        "perimeter_m_estimated": 45.11,
        "confidence_approx": 0.81,
        "method": "classical-watershed-contours",
        "disclaimer": "AI-estimated/approximate \u2014 not a legal cadastral boundary."
      },
      "geometry": {
        "type": "Polygon",
        "coordinates": [
          [
            [
              28.2,
              165.1
            ],
            [
              35.8,
              175.4
            ],
            [
              17.9,
              183.0
            ],
            [
              19.2,
              245.8
            ],
            [
              90.9,
              284.2
            ],
            [
              145.9,
              288.0
            ],
            [
              156.2,
              265.0
            ],
            [
              156.2,
              225.3
            ],
            [
              147.2,
              206.1
            ],
            [
              79.4,
              160.0
            ],
            [
              28.2,
              165.1
            ]
          ]
        ]
      }
    },
    {
      "type": "Feature",
      "properties": {
        "parcel_id": "P-015",
        "area_m2_estimated": 130.92,
        "area_ha_estimated": 0.0131,
        "perimeter_m_estimated": 52.7,
        "confidence_approx": 0.786,
        "method": "classical-watershed-contours",
        "disclaimer": "AI-estimated/approximate \u2014 not a legal cadastral boundary."
      },
      "geometry": {
        "type": "Polygon",
        "coordinates": [
          [
            [
              445.4,
              1175.0
            ],
            [
              418.6,
              1178.9
            ],
            [
              407.0,
              1167.4
            ],
            [
              317.4,
              1232.6
            ],
            [
              341.8,
              1251.8
            ],
            [
              317.4,
              1287.7
            ],
            [
              344.3,
              1317.1
            ],
            [
              372.5,
              1329.9
            ],
            [
              455.7,
              1249.3
            ],
            [
              419.8,
              1232.6
            ],
            [
              453.1,
              1198.1
            ],
            [
              445.4,
              1175.0
            ]
          ]
        ]
      }
    },
    {
      "type": "Feature",
      "properties": {
        "parcel_id": "P-016",
        "area_m2_estimated": 129.21,
        "area_ha_estimated": 0.0129,
        "perimeter_m_estimated": 54.4,
        "confidence_approx": 0.755,
        "method": "classical-watershed-contours",
        "disclaimer": "AI-estimated/approximate \u2014 not a legal cadastral boundary."
      },
      "geometry": {
        "type": "Polygon",
        "coordinates": [
          [
            [
              97.3,
              1201.9
            ],
            [
              78.1,
              1198.1
            ],
            [
              1.3,
              1232.6
            ],
            [
              1.3,
              1321.0
            ],
            [
              20.5,
              1317.1
            ],
            [
              35.8,
              1333.8
            ],
            [
              1.3,
              1373.4
            ],
            [
              94.7,
              1318.4
            ],
            [
              117.8,
              1291.5
            ],
            [
              113.9,
              1273.6
            ],
            [
              96.0,
              1262.1
            ],
            [
              117.8,
              1232.6
            ],
            [
              97.3,
              1201.9
            ]
          ]
        ]
      }
    },
    {
      "type": "Feature",
      "properties": {
        "parcel_id": "P-017",
        "area_m2_estimated": 127.51,
        "area_ha_estimated": 0.0128,
        "perimeter_m_estimated": 68.29,
        "confidence_approx": 0.607,
        "method": "classical-watershed-contours",
        "disclaimer": "AI-estimated/approximate \u2014 not a legal cadastral boundary."
      },
      "geometry": {
        "type": "Polygon",
        "coordinates": [
          [
            [
              56.3,
              34.6
            ],
            [
              64.0,
              56.3
            ],
            [
              117.8,
              97.3
            ],
            [
              181.8,
              112.6
            ],
            [
              186.9,
              47.4
            ],
            [
              174.1,
              11.5
            ],
            [
              212.5,
              5.1
            ],
            [
              211.2,
              28.2
            ],
            [
              247.0,
              23.0
            ],
            [
              254.7,
              48.6
            ],
            [
              263.7,
              26.9
            ],
            [
              277.8,
              26.9
            ],
            [
              254.7,
              1.3
            ],
            [
              62.7,
              1.3
            ],
            [
              56.3,
              34.6
            ]
          ]
        ]
      }
    },
    {
      "type": "Feature",
      "properties": {
        "parcel_id": "P-018",
        "area_m2_estimated": 126.23,
        "area_ha_estimated": 0.0126,
        "perimeter_m_estimated": 57.63,
        "confidence_approx": 0.704,
        "method": "classical-watershed-contours",
        "disclaimer": "AI-estimated/approximate \u2014 not a legal cadastral boundary."
      },
      "geometry": {
        "type": "Polygon",
        "coordinates": [
          [
            [
              81.9,
              536.3
            ],
            [
              107.5,
              554.2
            ],
            [
              84.5,
              564.5
            ],
            [
              103.7,
              560.6
            ],
            [
              101.1,
              599.0
            ],
            [
              116.5,
              604.2
            ],
            [
              105.0,
              618.2
            ],
            [
              80.6,
              615.7
            ],
            [
              107.5,
              632.3
            ],
            [
              176.6,
              640.0
            ],
            [
              194.6,
              595.2
            ],
            [
              234.2,
              595.2
            ],
            [
              231.7,
              561.9
            ],
            [
              197.1,
              535.0
            ],
            [
              101.1,
              505.6
            ],
            [
              81.9,
              536.3
            ]
          ]
        ]
      }
    },
    {
      "type": "Feature",
      "properties": {
        "parcel_id": "P-019",
        "area_m2_estimated": 120.75,
        "area_ha_estimated": 0.0121,
        "perimeter_m_estimated": 112.02,
        "confidence_approx": 0.446,
        "method": "classical-watershed-contours",
        "disclaimer": "AI-estimated/approximate \u2014 not a legal cadastral boundary."
      },
      "geometry": {
        "type": "Polygon",
        "coordinates": [
          [
            [
              1737.0,
              1324.8
            ],
            [
              1761.3,
              1440.0
            ],
            [
              2045.4,
              1456.6
            ],
            [
              2045.4,
              1390.1
            ],
            [
              2025.0,
              1383.7
            ],
            [
              2042.9,
              1437.4
            ],
            [
              1985.3,
              1436.2
            ],
            [
              1978.9,
              1418.2
            ],
            [
              1972.5,
              1436.2
            ],
            [
              1861.1,
              1436.2
            ],
            [
              1845.8,
              1358.1
            ],
            [
              1853.4,
              1433.6
            ],
            [
              1825.3,
              1436.2
            ],
            [
              1824.0,
              1342.7
            ],
            [
              1737.0,
              1324.8
            ]
          ]
        ]
      }
    },
    {
      "type": "Feature",
      "properties": {
        "parcel_id": "P-020",
        "area_m2_estimated": 120.23,
        "area_ha_estimated": 0.012,
        "perimeter_m_estimated": 71.1,
        "confidence_approx": 0.574,
        "method": "classical-watershed-contours",
        "disclaimer": "AI-estimated/approximate \u2014 not a legal cadastral boundary."
      },
      "geometry": {
        "type": "Polygon",
        "coordinates": [
          [
            [
              1236.5,
              28.2
            ],
            [
              1236.5,
              89.6
            ],
            [
              1258.2,
              120.3
            ],
            [
              1225.0,
              177.9
            ],
            [
              1196.8,
              169.0
            ],
            [
              1193.0,
              195.8
            ],
            [
              1274.9,
              193.3
            ],
            [
              1285.1,
              204.8
            ],
            [
              1260.8,
              213.8
            ],
            [
              1277.4,
              234.2
            ],
            [
              1289.0,
              218.9
            ],
            [
              1292.8,
              250.9
            ],
            [
              1326.1,
              192.0
            ],
            [
              1297.9,
              165.1
            ],
            [
              1297.9,
              57.6
            ],
            [
              1264.6,
              26.9
            ],
            [
              1236.5,
              28.2
            ]
          ]
        ]
      }
    },
    {
      "type": "Feature",
      "properties": {
        "parcel_id": "P-021",
        "area_m2_estimated": 117.35,
        "area_ha_estimated": 0.0117,
        "perimeter_m_estimated": 54.49,
        "confidence_approx": 0.716,
        "method": "classical-watershed-contours",
        "disclaimer": "AI-estimated/approximate \u2014 not a legal cadastral boundary."
      },
      "geometry": {
        "type": "Polygon",
        "coordinates": [
          [
            [
              549.1,
              1.3
            ],
            [
              545.3,
              32.0
            ],
            [
              533.8,
              32.0
            ],
            [
              540.2,
              52.5
            ],
            [
              527.4,
              60.2
            ],
            [
              527.4,
              98.6
            ],
            [
              561.9,
              145.9
            ],
            [
              631.0,
              147.2
            ],
            [
              627.2,
              97.3
            ],
            [
              637.4,
              64.0
            ],
            [
              611.8,
              1.3
            ],
            [
              606.7,
              35.8
            ],
            [
              582.4,
              41.0
            ],
            [
              567.0,
              26.9
            ],
            [
              581.1,
              20.5
            ],
            [
              581.1,
              1.3
            ],
            [
              549.1,
              1.3
            ]
          ]
        ]
      }
    },
    {
      "type": "Feature",
      "properties": {
        "parcel_id": "P-022",
        "area_m2_estimated": 115.57,
        "area_ha_estimated": 0.0116,
        "perimeter_m_estimated": 64.72,
        "confidence_approx": 0.608,
        "method": "classical-watershed-contours",
        "disclaimer": "AI-estimated/approximate \u2014 not a legal cadastral boundary."
      },
      "geometry": {
        "type": "Polygon",
        "coordinates": [
          [
            [
              1039.4,
              1446.4
            ],
            [
              1039.4,
              1530.9
            ],
            [
              1058.6,
              1521.9
            ],
            [
              1065.0,
              1530.9
            ],
            [
              1239.0,
              1530.9
            ],
            [
              1240.3,
              1520.6
            ],
            [
              1207.0,
              1519.4
            ],
            [
              1199.4,
              1506.6
            ],
            [
              1185.3,
              1505.3
            ],
            [
              1176.3,
              1523.2
            ],
            [
              1166.1,
              1505.3
            ],
            [
              1136.6,
              1505.3
            ],
            [
              1118.7,
              1405.4
            ],
            [
              1079.0,
              1408.0
            ],
            [
              1071.4,
              1447.7
            ],
            [
              1039.4,
              1446.4
            ]
          ]
        ]
      }
    },
    {
      "type": "Feature",
      "properties": {
        "parcel_id": "P-023",
        "area_m2_estimated": 114.61,
        "area_ha_estimated": 0.0115,
        "perimeter_m_estimated": 48.76,
        "confidence_approx": 0.795,
        "method": "classical-watershed-contours",
        "disclaimer": "AI-estimated/approximate \u2014 not a legal cadastral boundary."
      },
      "geometry": {
        "type": "Polygon",
        "coordinates": [
          [
            [
              897.3,
              1324.8
            ],
            [
              784.6,
              1326.1
            ],
            [
              768.0,
              1367.0
            ],
            [
              768.0,
              1399.0
            ],
            [
              809.0,
              1401.6
            ],
            [
              815.4,
              1460.5
            ],
            [
              846.1,
              1460.5
            ],
            [
              855.0,
              1404.2
            ],
            [
              890.9,
              1399.0
            ],
            [
              897.3,
              1324.8
            ]
          ]
        ]
      }
    },
    {
      "type": "Feature",
      "properties": {
        "parcel_id": "P-024",
        "area_m2_estimated": 110.4,
        "area_ha_estimated": 0.011,
        "perimeter_m_estimated": 59.45,
        "confidence_approx": 0.641,
        "method": "classical-watershed-contours",
        "disclaimer": "AI-estimated/approximate \u2014 not a legal cadastral boundary."
      },
      "geometry": {
        "type": "Polygon",
        "coordinates": [
          [
            [
              727.0,
              69.1
            ],
            [
              720.6,
              163.8
            ],
            [
              757.8,
              160.0
            ],
            [
              762.9,
              139.5
            ],
            [
              769.3,
              176.6
            ],
            [
              725.8,
              193.3
            ],
            [
              826.9,
              199.7
            ],
            [
              817.9,
              70.4
            ],
            [
              777.0,
              65.3
            ],
            [
              742.4,
              94.7
            ],
            [
              745.0,
              74.2
            ],
            [
              727.0,
              69.1
            ]
          ]
        ]
      }
    },
    {
      "type": "Feature",
      "properties": {
        "parcel_id": "P-025",
        "area_m2_estimated": 107.16,
        "area_ha_estimated": 0.0107,
        "perimeter_m_estimated": 54.56,
        "confidence_approx": 0.684,
        "method": "classical-watershed-contours",
        "disclaimer": "AI-estimated/approximate \u2014 not a legal cadastral boundary."
      },
      "geometry": {
        "type": "Polygon",
        "coordinates": [
          [
            [
              1440.0,
              1392.6
            ],
            [
              1436.2,
              1436.2
            ],
            [
              1473.3,
              1497.6
            ],
            [
              1482.2,
              1497.6
            ],
            [
              1473.3,
              1489.9
            ],
            [
              1487.4,
              1449.0
            ],
            [
              1510.4,
              1451.5
            ],
            [
              1519.4,
              1475.8
            ],
            [
              1543.7,
              1487.4
            ],
            [
              1538.6,
              1473.3
            ],
            [
              1553.9,
              1474.6
            ],
            [
              1559.0,
              1425.9
            ],
            [
              1575.7,
              1425.9
            ],
            [
              1565.4,
              1397.8
            ],
            [
              1557.8,
              1405.4
            ],
            [
              1528.3,
              1370.9
            ],
            [
              1486.1,
              1363.2
            ],
            [
              1468.2,
              1395.2
            ],
            [
              1440.0,
              1392.6
            ]
          ]
        ]
      }
    },
    {
      "type": "Feature",
      "properties": {
        "parcel_id": "P-026",
        "area_m2_estimated": 105.22,
        "area_ha_estimated": 0.0105,
        "perimeter_m_estimated": 60.43,
        "confidence_approx": 0.619,
        "method": "classical-watershed-contours",
        "disclaimer": "AI-estimated/approximate \u2014 not a legal cadastral boundary."
      },
      "geometry": {
        "type": "Polygon",
        "coordinates": [
          [
            [
              257.3,
              1.3
            ],
            [
              280.3,
              26.9
            ],
            [
              257.3,
              42.2
            ],
            [
              265.0,
              90.9
            ],
            [
              297.0,
              94.7
            ],
            [
              303.4,
              28.2
            ],
            [
              322.6,
              35.8
            ],
            [
              318.7,
              46.1
            ],
            [
              350.7,
              87.0
            ],
            [
              372.5,
              76.8
            ],
            [
              376.3,
              93.4
            ],
            [
              410.9,
              90.9
            ],
            [
              407.0,
              6.4
            ],
            [
              257.3,
              1.3
            ]
          ]
        ]
      }
    },
    {
      "type": "Feature",
      "properties": {
        "parcel_id": "P-027",
        "area_m2_estimated": 100.5,
        "area_ha_estimated": 0.01,
        "perimeter_m_estimated": 59.31,
        "confidence_approx": 0.616,
        "method": "classical-watershed-contours",
        "disclaimer": "AI-estimated/approximate \u2014 not a legal cadastral boundary."
      },
      "geometry": {
        "type": "Polygon",
        "coordinates": [
          [
            [
              1656.3,
              1326.1
            ],
            [
              1629.4,
              1361.9
            ],
            [
              1606.4,
              1361.9
            ],
            [
              1603.8,
              1401.6
            ],
            [
              1664.0,
              1469.4
            ],
            [
              1690.9,
              1469.4
            ],
            [
              1676.8,
              1466.9
            ],
            [
              1683.2,
              1455.4
            ],
            [
              1664.0,
              1464.3
            ],
            [
              1664.0,
              1447.7
            ],
            [
              1684.5,
              1441.3
            ],
            [
              1669.1,
              1423.4
            ],
            [
              1664.0,
              1438.7
            ],
            [
              1662.7,
              1419.5
            ],
            [
              1696.0,
              1414.4
            ],
            [
              1720.3,
              1378.6
            ],
            [
              1733.1,
              1388.8
            ],
            [
              1748.5,
              1379.8
            ],
            [
              1690.9,
              1329.9
            ],
            [
              1656.3,
              1326.1
            ]
          ]
        ]
      }
    },
    {
      "type": "Feature",
      "properties": {
        "parcel_id": "P-028",
        "area_m2_estimated": 90.75,
        "area_ha_estimated": 0.0091,
        "perimeter_m_estimated": 45.43,
        "confidence_approx": 0.755,
        "method": "classical-watershed-contours",
        "disclaimer": "AI-estimated/approximate \u2014 not a legal cadastral boundary."
      },
      "geometry": {
        "type": "Polygon",
        "coordinates": [
          [
            [
              663.0,
              1368.3
            ],
            [
              613.1,
              1427.2
            ],
            [
              610.6,
              1451.5
            ],
            [
              595.2,
              1466.9
            ],
            [
              606.7,
              1504.0
            ],
            [
              634.9,
              1487.4
            ],
            [
              634.9,
              1515.5
            ],
            [
              650.2,
              1528.3
            ],
            [
              674.6,
              1506.6
            ],
            [
              696.3,
              1457.9
            ],
            [
              686.1,
              1436.2
            ],
            [
              691.2,
              1415.7
            ],
            [
              669.4,
              1414.4
            ],
            [
              682.2,
              1382.4
            ],
            [
              663.0,
              1368.3
            ]
          ]
        ]
      }
    },
    {
      "type": "Feature",
      "properties": {
        "parcel_id": "P-029",
        "area_m2_estimated": 87.7,
        "area_ha_estimated": 0.0088,
        "perimeter_m_estimated": 64.06,
        "confidence_approx": 0.55,
        "method": "classical-watershed-contours",
        "disclaimer": "AI-estimated/approximate \u2014 not a legal cadastral boundary."
      },
      "geometry": {
        "type": "Polygon",
        "coordinates": [
          [
            [
              1756.2,
              193.3
            ],
            [
              1762.6,
              229.1
            ],
            [
              1751.0,
              224.0
            ],
            [
              1740.8,
              249.6
            ],
            [
              1786.9,
              258.6
            ],
            [
              1775.4,
              272.6
            ],
            [
              1792.0,
              280.3
            ],
            [
              1792.0,
              299.5
            ],
            [
              1894.4,
              267.5
            ],
            [
              1838.1,
              262.4
            ],
            [
              1877.8,
              225.3
            ],
            [
              1877.8,
              195.8
            ],
            [
              1834.2,
              209.9
            ],
            [
              1821.4,
              236.8
            ],
            [
              1824.0,
              203.5
            ],
            [
              1793.3,
              209.9
            ],
            [
              1790.7,
              189.4
            ],
            [
              1772.8,
              183.0
            ],
            [
              1766.4,
              202.2
            ],
            [
              1756.2,
              193.3
            ]
          ]
        ]
      }
    },
    {
      "type": "Feature",
      "properties": {
        "parcel_id": "P-030",
        "area_m2_estimated": 83.57,
        "area_ha_estimated": 0.0084,
        "perimeter_m_estimated": 49.81,
        "confidence_approx": 0.661,
        "method": "classical-watershed-contours",
        "disclaimer": "AI-estimated/approximate \u2014 not a legal cadastral boundary."
      },
      "geometry": {
        "type": "Polygon",
        "coordinates": [
          [
            [
              1.3,
              414.7
            ],
            [
              1.3,
              528.6
            ],
            [
              32.0,
              532.5
            ],
            [
              42.2,
              524.8
            ],
            [
              65.3,
              533.8
            ],
            [
              75.5,
              503.0
            ],
            [
              41.0,
              487.7
            ],
            [
              66.6,
              487.7
            ],
            [
              70.4,
              472.3
            ],
            [
              108.8,
              481.3
            ],
            [
              107.5,
              458.2
            ],
            [
              55.0,
              440.3
            ],
            [
              65.3,
              428.8
            ],
            [
              56.3,
              416.0
            ],
            [
              1.3,
              414.7
            ]
          ]
        ]
      }
    },
    {
      "type": "Feature",
      "properties": {
        "parcel_id": "P-031",
        "area_m2_estimated": 82.97,
        "area_ha_estimated": 0.0083,
        "perimeter_m_estimated": 59.3,
        "confidence_approx": 0.57,
        "method": "classical-watershed-contours",
        "disclaimer": "AI-estimated/approximate \u2014 not a legal cadastral boundary."
      },
      "geometry": {
        "type": "Polygon",
        "coordinates": [
          [
            [
              724.7,
              451.7
            ],
            [
              748.8,
              450.6
            ],
            [
              769.3,
              483.8
            ],
            [
              745.0,
              486.4
            ],
            [
              782.1,
              491.5
            ],
            [
              770.6,
              504.3
            ],
            [
              718.1,
              509.4
            ],
            [
              718.1,
              524.8
            ],
            [
              830.7,
              531.2
            ],
            [
              828.2,
              458.2
            ],
            [
              810.2,
              451.8
            ],
            [
              820.5,
              425.0
            ],
            [
              788.5,
              410.9
            ],
            [
              768.0,
              421.1
            ],
            [
              784.6,
              427.5
            ],
            [
              732.2,
              432.6
            ],
            [
              724.7,
              451.7
            ]
          ]
        ]
      }
    },
    {
      "type": "Feature",
      "properties": {
        "parcel_id": "P-032",
        "area_m2_estimated": 82.91,
        "area_ha_estimated": 0.0083,
        "perimeter_m_estimated": 36.47,
        "confidence_approx": 0.806,
        "method": "classical-watershed-contours",
        "disclaimer": "AI-estimated/approximate \u2014 not a legal cadastral boundary."
      },
      "geometry": {
        "type": "Polygon",
        "coordinates": [
          [
            [
              560.6,
              184.3
            ],
            [
              560.6,
              275.2
            ],
            [
              567.0,
              293.1
            ],
            [
              640.0,
              291.8
            ],
            [
              637.4,
              186.9
            ],
            [
              560.6,
              184.3
            ]
          ]
        ]
      }
    },
    {
      "type": "Feature",
      "properties": {
        "parcel_id": "P-033",
        "area_m2_estimated": 81.01,
        "area_ha_estimated": 0.0081,
        "perimeter_m_estimated": 41.8,
        "confidence_approx": 0.776,
        "method": "classical-watershed-contours",
        "disclaimer": "AI-estimated/approximate \u2014 not a legal cadastral boundary."
      },
      "geometry": {
        "type": "Polygon",
        "coordinates": [
          [
            [
              495.4,
              869.1
            ],
            [
              454.4,
              865.3
            ],
            [
              451.8,
              874.2
            ],
            [
              449.3,
              864.0
            ],
            [
              375.0,
              870.4
            ],
            [
              369.9,
              902.4
            ],
            [
              380.2,
              913.9
            ],
            [
              373.8,
              948.5
            ],
            [
              410.9,
              948.5
            ],
            [
              432.6,
              931.8
            ],
            [
              442.9,
              945.9
            ],
            [
              474.9,
              947.2
            ],
            [
              477.4,
              887.0
            ],
            [
              495.4,
              869.1
            ]
          ]
        ]
      }
    },
    {
      "type": "Feature",
      "properties": {
        "parcel_id": "P-034",
        "area_m2_estimated": 79.7,
        "area_ha_estimated": 0.008,
        "perimeter_m_estimated": 72.62,
        "confidence_approx": 0.493,
        "method": "classical-watershed-contours",
        "disclaimer": "AI-estimated/approximate \u2014 not a legal cadastral boundary."
      },
      "geometry": {
        "type": "Polygon",
        "coordinates": [
          [
            [
              888.3,
              395.5
            ],
            [
              764.2,
              398.1
            ],
            [
              748.8,
              381.4
            ],
            [
              716.8,
              405.8
            ],
            [
              614.4,
              391.7
            ],
            [
              642.6,
              407.0
            ],
            [
              606.7,
              440.3
            ],
            [
              661.8,
              454.4
            ],
            [
              668.2,
              441.6
            ],
            [
              678.4,
              468.5
            ],
            [
              730.9,
              407.0
            ],
            [
              865.3,
              426.2
            ],
            [
              888.3,
              395.5
            ]
          ]
        ]
      }
    },
    {
      "type": "Feature",
      "properties": {
        "parcel_id": "P-035",
        "area_m2_estimated": 79.47,
        "area_ha_estimated": 0.0079,
        "perimeter_m_estimated": 65.28,
        "confidence_approx": 0.525,
        "method": "classical-watershed-contours",
        "disclaimer": "AI-estimated/approximate \u2014 not a legal cadastral boundary."
      },
      "geometry": {
        "type": "Polygon",
        "coordinates": [
          [
            [
              798.7,
              17.9
            ],
            [
              848.6,
              20.5
            ],
            [
              852.5,
              42.2
            ],
            [
              887.0,
              34.6
            ],
            [
              888.3,
              58.9
            ],
            [
              905.0,
              69.1
            ],
            [
              885.8,
              67.8
            ],
            [
              884.5,
              116.5
            ],
            [
              851.2,
              130.6
            ],
            [
              852.5,
              143.4
            ],
            [
              867.8,
              152.3
            ],
            [
              917.8,
              143.4
            ],
            [
              919.0,
              42.2
            ],
            [
              934.4,
              39.7
            ],
            [
              933.1,
              10.2
            ],
            [
              948.5,
              5.1
            ],
            [
              833.3,
              1.3
            ],
            [
              798.7,
              17.9
            ]
          ]
        ]
      }
    },
    {
      "type": "Feature",
      "properties": {
        "parcel_id": "P-036",
        "area_m2_estimated": 78.61,
        "area_ha_estimated": 0.0079,
        "perimeter_m_estimated": 55.02,
        "confidence_approx": 0.591,
        "method": "classical-watershed-contours",
        "disclaimer": "AI-estimated/approximate \u2014 not a legal cadastral boundary."
      },
      "geometry": {
        "type": "Polygon",
        "coordinates": [
          [
            [
              408.3,
              521.0
            ],
            [
              414.7,
              532.5
            ],
            [
              399.4,
              527.4
            ],
            [
              391.7,
              544.0
            ],
            [
              425.0,
              549.1
            ],
            [
              432.6,
              577.3
            ],
            [
              404.5,
              601.6
            ],
            [
              423.7,
              614.4
            ],
            [
              413.4,
              634.9
            ],
            [
              398.1,
              622.1
            ],
            [
              391.7,
              633.6
            ],
            [
              467.2,
              650.2
            ],
            [
              483.8,
              623.4
            ],
            [
              467.2,
              605.4
            ],
            [
              501.8,
              602.9
            ],
            [
              518.4,
              574.7
            ],
            [
              408.3,
              521.0
            ]
          ]
        ]
      }
    },
    {
      "type": "Feature",
      "properties": {
        "parcel_id": "P-037",
        "area_m2_estimated": 78.15,
        "area_ha_estimated": 0.0078,
        "perimeter_m_estimated": 38.38,
        "confidence_approx": 0.806,
        "method": "classical-watershed-contours",
        "disclaimer": "AI-estimated/approximate \u2014 not a legal cadastral boundary."
      },
      "geometry": {
        "type": "Polygon",
        "coordinates": [
          [
            [
              949.8,
              1429.8
            ],
            [
              940.8,
              1437.4
            ],
            [
              934.4,
              1431.0
            ],
            [
              867.8,
              1482.2
            ],
            [
              855.0,
              1530.9
            ],
            [
              869.1,
              1530.9
            ],
            [
              890.9,
              1514.2
            ],
            [
              902.4,
              1530.9
            ],
            [
              962.6,
              1530.9
            ],
            [
              966.4,
              1451.5
            ],
            [
              949.8,
              1429.8
            ]
          ]
        ]
      }
    },
    {
      "type": "Feature",
      "properties": {
        "parcel_id": "P-038",
        "area_m2_estimated": 78.03,
        "area_ha_estimated": 0.0078,
        "perimeter_m_estimated": 41.51,
        "confidence_approx": 0.766,
        "method": "classical-watershed-contours",
        "disclaimer": "AI-estimated/approximate \u2014 not a legal cadastral boundary."
      },
      "geometry": {
        "type": "Polygon",
        "coordinates": [
          [
            [
              1587.2,
              611.8
            ],
            [
              1594.9,
              614.4
            ],
            [
              1585.9,
              617.0
            ],
            [
              1593.6,
              632.3
            ],
            [
              1589.8,
              654.1
            ],
            [
              1579.5,
              632.3
            ],
            [
              1559.0,
              637.4
            ],
            [
              1560.3,
              715.5
            ],
            [
              1641.0,
              714.2
            ],
            [
              1647.4,
              677.1
            ],
            [
              1641.0,
              614.4
            ],
            [
              1587.2,
              611.8
            ]
          ]
        ]
      }
    },
    {
      "type": "Feature",
      "properties": {
        "parcel_id": "P-039",
        "area_m2_estimated": 75.16,
        "area_ha_estimated": 0.0075,
        "perimeter_m_estimated": 36.08,
        "confidence_approx": 0.806,
        "method": "classical-watershed-contours",
        "disclaimer": "AI-estimated/approximate \u2014 not a legal cadastral boundary."
      },
      "geometry": {
        "type": "Polygon",
        "coordinates": [
          [
            [
              1551.4,
              929.3
            ],
            [
              1547.5,
              1027.8
            ],
            [
              1568.0,
              1033.0
            ],
            [
              1582.1,
              1025.3
            ],
            [
              1589.8,
              1030.4
            ],
            [
              1630.7,
              1027.8
            ],
            [
              1630.7,
              940.8
            ],
            [
              1574.4,
              939.5
            ],
            [
              1570.6,
              928.0
            ],
            [
              1551.4,
              929.3
            ]
          ]
        ]
      }
    },
    {
      "type": "Feature",
      "properties": {
        "parcel_id": "P-040",
        "area_m2_estimated": 73.83,
        "area_ha_estimated": 0.0074,
        "perimeter_m_estimated": 51.25,
        "confidence_approx": 0.61,
        "method": "classical-watershed-contours",
        "disclaimer": "AI-estimated/approximate \u2014 not a legal cadastral boundary."
      },
      "geometry": {
        "type": "Polygon",
        "coordinates": [
          [
            [
              1079.0,
              1017.6
            ],
            [
              1058.6,
              1031.7
            ],
            [
              1062.4,
              1020.2
            ],
            [
              1036.8,
              1022.7
            ],
            [
              1025.3,
              1003.5
            ],
            [
              1007.4,
              1027.8
            ],
            [
              953.6,
              1031.7
            ],
            [
              947.2,
              1022.7
            ],
            [
              919.0,
              1043.2
            ],
            [
              962.6,
              1054.7
            ],
            [
              953.6,
              1082.9
            ],
            [
              972.8,
              1111.0
            ],
            [
              976.6,
              1091.8
            ],
            [
              1008.6,
              1095.7
            ],
            [
              1013.8,
              1079.0
            ],
            [
              1033.0,
              1076.5
            ],
            [
              1033.0,
              1059.8
            ],
            [
              1054.7,
              1066.2
            ],
            [
              1079.0,
              1048.3
            ],
            [
              1079.0,
              1017.6
            ]
          ]
        ]
      }
    },
    {
      "type": "Feature",
      "properties": {
        "parcel_id": "P-041",
        "area_m2_estimated": 70.91,
        "area_ha_estimated": 0.0071,
        "perimeter_m_estimated": 46.39,
        "confidence_approx": 0.654,
        "method": "classical-watershed-contours",
        "disclaimer": "AI-estimated/approximate \u2014 not a legal cadastral boundary."
      },
      "geometry": {
        "type": "Polygon",
        "coordinates": [
          [
            [
              935.7,
              10.2
            ],
            [
              943.4,
              29.4
            ],
            [
              1008.6,
              23.0
            ],
            [
              1022.7,
              76.8
            ],
            [
              1048.3,
              70.4
            ],
            [
              1053.4,
              87.0
            ],
            [
              1081.6,
              87.0
            ],
            [
              1082.9,
              1.3
            ],
            [
              943.4,
              1.3
            ],
            [
              951.0,
              5.1
            ],
            [
              935.7,
              10.2
            ]
          ]
        ]
      }
    },
    {
      "type": "Feature",
      "properties": {
        "parcel_id": "P-042",
        "area_m2_estimated": 70.85,
        "area_ha_estimated": 0.0071,
        "perimeter_m_estimated": 59.45,
        "confidence_approx": 0.537,
        "method": "classical-watershed-contours",
        "disclaimer": "AI-estimated/approximate \u2014 not a legal cadastral boundary."
      },
      "geometry": {
        "type": "Polygon",
        "coordinates": [
          [
            [
              1175.0,
              980.5
            ],
            [
              1146.9,
              984.3
            ],
            [
              1167.4,
              986.9
            ],
            [
              1167.4,
              1004.8
            ],
            [
              1153.3,
              1012.5
            ],
            [
              1086.7,
              1009.9
            ],
            [
              1081.6,
              1048.3
            ],
            [
              1047.0,
              1079.0
            ],
            [
              1084.2,
              1088.0
            ],
            [
              1105.9,
              1150.7
            ],
            [
              1114.9,
              1129.0
            ],
            [
              1136.6,
              1121.3
            ],
            [
              1118.7,
              1079.0
            ],
            [
              1131.5,
              1070.1
            ],
            [
              1111.0,
              1056.0
            ],
            [
              1158.4,
              1039.4
            ],
            [
              1158.4,
              1018.9
            ],
            [
              1182.7,
              999.7
            ],
            [
              1175.0,
              980.5
            ]
          ]
        ]
      }
    },
    {
      "type": "Feature",
      "properties": {
        "parcel_id": "P-043",
        "area_m2_estimated": 68.49,
        "area_ha_estimated": 0.0068,
        "perimeter_m_estimated": 39.19,
        "confidence_approx": 0.759,
        "method": "classical-watershed-contours",
        "disclaimer": "AI-estimated/approximate \u2014 not a legal cadastral boundary."
      },
      "geometry": {
        "type": "Polygon",
        "coordinates": [
          [
            [
              346.9,
              709.1
            ],
            [
              281.6,
              710.4
            ],
            [
              279.0,
              718.1
            ],
            [
              262.4,
              719.4
            ],
            [
              254.7,
              753.9
            ],
            [
              268.8,
              780.8
            ],
            [
              262.4,
              789.8
            ],
            [
              298.2,
              792.3
            ],
            [
              300.8,
              766.7
            ],
            [
              311.0,
              769.3
            ],
            [
              311.0,
              792.3
            ],
            [
              349.4,
              789.8
            ],
            [
              353.3,
              721.9
            ],
            [
              340.5,
              715.5
            ],
            [
              346.9,
              709.1
            ]
          ]
        ]
      }
    },
    {
      "type": "Feature",
      "properties": {
        "parcel_id": "P-044",
        "area_m2_estimated": 67.67,
        "area_ha_estimated": 0.0068,
        "perimeter_m_estimated": 34.18,
        "confidence_approx": 0.805,
        "method": "classical-watershed-contours",
        "disclaimer": "AI-estimated/approximate \u2014 not a legal cadastral boundary."
      },
      "geometry": {
        "type": "Polygon",
        "coordinates": [
          [
            [
              1045.8,
              631.0
            ],
            [
              1047.0,
              700.2
            ],
            [
              1084.2,
              701.4
            ],
            [
              1088.0,
              695.0
            ],
            [
              1146.9,
              700.2
            ],
            [
              1145.6,
              631.0
            ],
            [
              1045.8,
              631.0
            ]
          ]
        ]
      }
    },
    {
      "type": "Feature",
      "properties": {
        "parcel_id": "P-045",
        "area_m2_estimated": 66.49,
        "area_ha_estimated": 0.0066,
        "perimeter_m_estimated": 36.93,
        "confidence_approx": 0.796,
        "method": "classical-watershed-contours",
        "disclaimer": "AI-estimated/approximate \u2014 not a legal cadastral boundary."
      },
      "geometry": {
        "type": "Polygon",
        "coordinates": [
          [
            [
              1536.0,
              788.5
            ],
            [
              1492.5,
              787.2
            ],
            [
              1493.8,
              826.9
            ],
            [
              1487.4,
              830.7
            ],
            [
              1479.7,
              824.3
            ],
            [
              1475.8,
              833.3
            ],
            [
              1456.6,
              835.8
            ],
            [
              1454.1,
              892.2
            ],
            [
              1536.0,
              889.6
            ],
            [
              1536.0,
              788.5
            ]
          ]
        ]
      }
    },
    {
      "type": "Feature",
      "properties": {
        "parcel_id": "P-046",
        "area_m2_estimated": 66.04,
        "area_ha_estimated": 0.0066,
        "perimeter_m_estimated": 40.21,
        "confidence_approx": 0.725,
        "method": "classical-watershed-contours",
        "disclaimer": "AI-estimated/approximate \u2014 not a legal cadastral boundary."
      },
      "geometry": {
        "type": "Polygon",
        "coordinates": [
          [
            [
              1034.2,
              451.8
            ],
            [
              1034.2,
              467.2
            ],
            [
              1044.5,
              467.2
            ],
            [
              1053.4,
              453.1
            ],
            [
              1067.5,
              458.2
            ],
            [
              1066.2,
              526.1
            ],
            [
              1157.1,
              527.4
            ],
            [
              1158.4,
              489.0
            ],
            [
              1148.2,
              457.0
            ],
            [
              1034.2,
              451.8
            ]
          ]
        ]
      }
    },
    {
      "type": "Feature",
      "properties": {
        "parcel_id": "P-047",
        "area_m2_estimated": 64.21,
        "area_ha_estimated": 0.0064,
        "perimeter_m_estimated": 50.49,
        "confidence_approx": 0.583,
        "method": "classical-watershed-contours",
        "disclaimer": "AI-estimated/approximate \u2014 not a legal cadastral boundary."
      },
      "geometry": {
        "type": "Polygon",
        "coordinates": [
          [
            [
              1249.3,
              551.7
            ],
            [
              1246.7,
              604.2
            ],
            [
              1210.9,
              608.0
            ],
            [
              1233.9,
              611.8
            ],
            [
              1221.1,
              625.9
            ],
            [
              1280.0,
              628.5
            ],
            [
              1283.8,
              663.0
            ],
            [
              1292.8,
              665.6
            ],
            [
              1297.9,
              650.2
            ],
            [
              1319.7,
              647.7
            ],
            [
              1326.1,
              627.2
            ],
            [
              1351.7,
              620.8
            ],
            [
              1345.3,
              592.6
            ],
            [
              1329.9,
              613.1
            ],
            [
              1304.3,
              609.3
            ],
            [
              1294.1,
              550.4
            ],
            [
              1249.3,
              551.7
            ]
          ]
        ]
      }
    },
    {
      "type": "Feature",
      "properties": {
        "parcel_id": "P-048",
        "area_m2_estimated": 63.14,
        "area_ha_estimated": 0.0063,
        "perimeter_m_estimated": 57.3,
        "confidence_approx": 0.529,
        "method": "classical-watershed-contours",
        "disclaimer": "AI-estimated/approximate \u2014 not a legal cadastral boundary."
      },
      "geometry": {
        "type": "Polygon",
        "coordinates": [
          [
            [
              1.3,
              942.1
            ],
            [
              1.3,
              997.1
            ],
            [
              113.9,
              983.0
            ],
            [
              231.7,
              986.9
            ],
            [
              202.2,
              949.8
            ],
            [
              176.6,
              954.9
            ],
            [
              172.8,
              976.6
            ],
            [
              124.2,
              977.9
            ],
            [
              93.4,
              952.3
            ],
            [
              73.0,
              962.6
            ],
            [
              58.9,
              945.9
            ],
            [
              1.3,
              942.1
            ]
          ]
        ]
      }
    },
    {
      "type": "Feature",
      "properties": {
        "parcel_id": "P-049",
        "area_m2_estimated": 62.69,
        "area_ha_estimated": 0.0063,
        "perimeter_m_estimated": 39.27,
        "confidence_approx": 0.723,
        "method": "classical-watershed-contours",
        "disclaimer": "AI-estimated/approximate \u2014 not a legal cadastral boundary."
      },
      "geometry": {
        "type": "Polygon",
        "coordinates": [
          [
            [
              823.0,
              211.2
            ],
            [
              783.4,
              211.2
            ],
            [
              788.5,
              230.4
            ],
            [
              765.4,
              229.1
            ],
            [
              775.7,
              245.8
            ],
            [
              720.6,
              241.9
            ],
            [
              718.1,
              277.8
            ],
            [
              736.0,
              289.3
            ],
            [
              793.6,
              290.6
            ],
            [
              794.9,
              282.9
            ],
            [
              806.4,
              290.6
            ],
            [
              828.2,
              288.0
            ],
            [
              823.0,
              211.2
            ]
          ]
        ]
      }
    },
    {
      "type": "Feature",
      "properties": {
        "parcel_id": "P-050",
        "area_m2_estimated": 59.46,
        "area_ha_estimated": 0.0059,
        "perimeter_m_estimated": 42.92,
        "confidence_approx": 0.647,
        "method": "classical-watershed-contours",
        "disclaimer": "AI-estimated/approximate \u2014 not a legal cadastral boundary."
      },
      "geometry": {
        "type": "Polygon",
        "coordinates": [
          [
            [
              698.9,
              797.4
            ],
            [
              725.8,
              815.4
            ],
            [
              746.2,
              805.1
            ],
            [
              756.5,
              809.0
            ],
            [
              752.6,
              852.5
            ],
            [
              764.2,
              874.2
            ],
            [
              783.4,
              876.8
            ],
            [
              779.5,
              887.0
            ],
            [
              800.0,
              887.0
            ],
            [
              805.1,
              875.5
            ],
            [
              829.4,
              871.7
            ],
            [
              819.2,
              849.9
            ],
            [
              828.2,
              846.1
            ],
            [
              829.4,
              803.8
            ],
            [
              698.9,
              797.4
            ]
          ]
        ]
      }
    },
    {
      "type": "Feature",
      "properties": {
        "parcel_id": "P-051",
        "area_m2_estimated": 58.27,
        "area_ha_estimated": 0.0058,
        "perimeter_m_estimated": 53.95,
        "confidence_approx": 0.536,
        "method": "classical-watershed-contours",
        "disclaimer": "AI-estimated/approximate \u2014 not a legal cadastral boundary."
      },
      "geometry": {
        "type": "Polygon",
        "coordinates": [
          [
            [
              1070.1,
              1259.5
            ],
            [
              1085.4,
              1273.6
            ],
            [
              1111.0,
              1273.6
            ],
            [
              1111.0,
              1291.5
            ],
            [
              1136.6,
              1291.5
            ],
            [
              1150.7,
              1305.6
            ],
            [
              1175.0,
              1287.7
            ],
            [
              1281.3,
              1281.3
            ],
            [
              1285.1,
              1289.0
            ],
            [
              1299.2,
              1273.6
            ],
            [
              1292.8,
              1263.4
            ],
            [
              1214.7,
              1264.6
            ],
            [
              1212.2,
              1254.4
            ],
            [
              1135.4,
              1253.1
            ],
            [
              1131.5,
              1271.0
            ],
            [
              1118.7,
              1257.0
            ],
            [
              1070.1,
              1259.5
            ]
          ]
        ]
      }
    },
    {
      "type": "Feature",
      "properties": {
        "parcel_id": "P-052",
        "area_m2_estimated": 46.54,
        "area_ha_estimated": 0.0047,
        "perimeter_m_estimated": 27.98,
        "confidence_approx": 0.804,
        "method": "classical-watershed-contours",
        "disclaimer": "AI-estimated/approximate \u2014 not a legal cadastral boundary."
      },
      "geometry": {
        "type": "Polygon",
        "coordinates": [
          [
            [
              908.8,
              728.3
            ],
            [
              903.7,
              783.4
            ],
            [
              907.5,
              801.3
            ],
            [
              928.0,
              801.3
            ],
            [
              933.1,
              794.9
            ],
            [
              943.4,
              800.0
            ],
            [
              971.5,
              800.0
            ],
            [
              971.5,
              728.3
            ],
            [
              945.9,
              728.3
            ],
            [
              940.8,
              733.4
            ],
            [
              926.7,
              727.0
            ],
            [
              908.8,
              728.3
            ]
          ]
        ]
      }
    },
    {
      "type": "Feature",
      "properties": {
        "parcel_id": "P-053",
        "area_m2_estimated": 45.25,
        "area_ha_estimated": 0.0045,
        "perimeter_m_estimated": 26.19,
        "confidence_approx": 0.803,
        "method": "classical-watershed-contours",
        "disclaimer": "AI-estimated/approximate \u2014 not a legal cadastral boundary."
      },
      "geometry": {
        "type": "Polygon",
        "coordinates": [
          [
            [
              570.9,
              870.4
            ],
            [
              558.1,
              917.8
            ],
            [
              563.2,
              951.0
            ],
            [
              604.2,
              956.2
            ],
            [
              618.2,
              945.9
            ],
            [
              619.5,
              874.2
            ],
            [
              570.9,
              870.4
            ]
          ]
        ]
      }
    },
    {
      "type": "Feature",
      "properties": {
        "parcel_id": "P-054",
        "area_m2_estimated": 45.12,
        "area_ha_estimated": 0.0045,
        "perimeter_m_estimated": 30.06,
        "confidence_approx": 0.803,
        "method": "classical-watershed-contours",
        "disclaimer": "AI-estimated/approximate \u2014 not a legal cadastral boundary."
      },
      "geometry": {
        "type": "Polygon",
        "coordinates": [
          [
            [
              10.2,
              1377.3
            ],
            [
              1.3,
              1379.8
            ],
            [
              1.3,
              1500.2
            ],
            [
              28.2,
              1482.2
            ],
            [
              39.7,
              1457.9
            ],
            [
              61.4,
              1438.7
            ],
            [
              47.4,
              1405.4
            ],
            [
              10.2,
              1377.3
            ]
          ]
        ]
      }
    },
    {
      "type": "Feature",
      "properties": {
        "parcel_id": "P-055",
        "area_m2_estimated": 44.68,
        "area_ha_estimated": 0.0045,
        "perimeter_m_estimated": 36.93,
        "confidence_approx": 0.65,
        "method": "classical-watershed-contours",
        "disclaimer": "AI-estimated/approximate \u2014 not a legal cadastral boundary."
      },
      "geometry": {
        "type": "Polygon",
        "coordinates": [
          [
            [
              897.3,
              638.7
            ],
            [
              890.9,
              672.0
            ],
            [
              907.5,
              675.8
            ],
            [
              908.8,
              692.5
            ],
            [
              915.2,
              673.3
            ],
            [
              934.4,
              683.5
            ],
            [
              934.4,
              704.0
            ],
            [
              921.6,
              702.7
            ],
            [
              924.2,
              711.7
            ],
            [
              984.3,
              716.8
            ],
            [
              972.8,
              710.4
            ],
            [
              971.5,
              641.3
            ],
            [
              897.3,
              638.7
            ]
          ]
        ]
      }
    },
    {
      "type": "Feature",
      "properties": {
        "parcel_id": "P-056",
        "area_m2_estimated": 40.91,
        "area_ha_estimated": 0.0041,
        "perimeter_m_estimated": 29.69,
        "confidence_approx": 0.773,
        "method": "classical-watershed-contours",
        "disclaimer": "AI-estimated/approximate \u2014 not a legal cadastral boundary."
      },
      "geometry": {
        "type": "Polygon",
        "coordinates": [
          [
            [
              1368.3,
              1241.6
            ],
            [
              1358.1,
              1230.1
            ],
            [
              1347.8,
              1228.8
            ],
            [
              1327.4,
              1235.2
            ],
            [
              1323.5,
              1249.3
            ],
            [
              1303.0,
              1248.0
            ],
            [
              1305.6,
              1260.8
            ],
            [
              1295.4,
              1263.4
            ],
            [
              1301.8,
              1273.6
            ],
            [
              1286.4,
              1290.2
            ],
            [
              1299.2,
              1290.2
            ],
            [
              1306.9,
              1299.2
            ],
            [
              1360.6,
              1299.2
            ],
            [
              1369.6,
              1306.9
            ],
            [
              1364.5,
              1286.4
            ],
            [
              1368.3,
              1241.6
            ]
          ]
        ]
      }
    },
    {
      "type": "Feature",
      "properties": {
        "parcel_id": "P-057",
        "area_m2_estimated": 40.45,
        "area_ha_estimated": 0.004,
        "perimeter_m_estimated": 40.66,
        "confidence_approx": 0.575,
        "method": "classical-watershed-contours",
        "disclaimer": "AI-estimated/approximate \u2014 not a legal cadastral boundary."
      },
      "geometry": {
        "type": "Polygon",
        "coordinates": [
          [
            [
              1861.1,
              794.9
            ],
            [
              1863.7,
              806.4
            ],
            [
              1880.3,
              811.5
            ],
            [
              1868.8,
              811.5
            ],
            [
              1873.9,
              832.0
            ],
            [
              1881.6,
              833.3
            ],
            [
              1879.0,
              851.2
            ],
            [
              1917.4,
              857.6
            ],
            [
              1929.0,
              853.8
            ],
            [
              1932.8,
              833.3
            ],
            [
              1941.8,
              855.0
            ],
            [
              1945.6,
              793.6
            ],
            [
              1912.3,
              785.9
            ],
            [
              1918.7,
              807.7
            ],
            [
              1903.4,
              803.8
            ],
            [
              1905.9,
              824.3
            ],
            [
              1886.7,
              787.2
            ],
            [
              1861.1,
              794.9
            ]
          ]
        ]
      }
    },
    {
      "type": "Feature",
      "properties": {
        "parcel_id": "P-058",
        "area_m2_estimated": 39.85,
        "area_ha_estimated": 0.004,
        "perimeter_m_estimated": 33.53,
        "confidence_approx": 0.674,
        "method": "classical-watershed-contours",
        "disclaimer": "AI-estimated/approximate \u2014 not a legal cadastral boundary."
      },
      "geometry": {
        "type": "Polygon",
        "coordinates": [
          [
            [
              499.2,
              715.5
            ],
            [
              496.6,
              727.0
            ],
            [
              483.8,
              728.3
            ],
            [
              499.2,
              732.2
            ],
            [
              505.6,
              779.5
            ],
            [
              497.9,
              805.1
            ],
            [
              537.6,
              807.7
            ],
            [
              542.7,
              802.6
            ],
            [
              542.7,
              733.4
            ],
            [
              549.1,
              728.3
            ],
            [
              554.2,
              739.8
            ],
            [
              563.2,
              728.3
            ],
            [
              556.8,
              719.4
            ],
            [
              499.2,
              715.5
            ]
          ]
        ]
      }
    },
    {
      "type": "Feature",
      "properties": {
        "parcel_id": "P-059",
        "area_m2_estimated": 38.45,
        "area_ha_estimated": 0.0038,
        "perimeter_m_estimated": 32.67,
        "confidence_approx": 0.679,
        "method": "classical-watershed-contours",
        "disclaimer": "AI-estimated/approximate \u2014 not a legal cadastral boundary."
      },
      "geometry": {
        "type": "Polygon",
        "coordinates": [
          [
            [
              1018.9,
              52.5
            ],
            [
              1020.2,
              108.8
            ],
            [
              1033.0,
              115.2
            ],
            [
              1031.7,
              143.4
            ],
            [
              1024.0,
              148.5
            ],
            [
              1081.6,
              149.8
            ],
            [
              1085.4,
              94.7
            ],
            [
              1070.1,
              85.8
            ],
            [
              1053.4,
              89.6
            ],
            [
              1048.3,
              73.0
            ],
            [
              1022.7,
              79.4
            ],
            [
              1018.9,
              52.5
            ]
          ]
        ]
      }
    },
    {
      "type": "Feature",
      "properties": {
        "parcel_id": "P-060",
        "area_m2_estimated": 38.16,
        "area_ha_estimated": 0.0038,
        "perimeter_m_estimated": 42.39,
        "confidence_approx": 0.545,
        "method": "classical-watershed-contours",
        "disclaimer": "AI-estimated/approximate \u2014 not a legal cadastral boundary."
      },
      "geometry": {
        "type": "Polygon",
        "coordinates": [
          [
            [
              343.0,
              957.4
            ],
            [
              358.4,
              965.1
            ],
            [
              349.4,
              986.9
            ],
            [
              404.5,
              989.4
            ],
            [
              418.6,
              1008.6
            ],
            [
              416.0,
              1018.9
            ],
            [
              435.2,
              1029.1
            ],
            [
              460.8,
              1025.3
            ],
            [
              469.8,
              1015.0
            ],
            [
              432.6,
              1006.1
            ],
            [
              422.4,
              992.0
            ],
            [
              449.3,
              988.2
            ],
            [
              437.8,
              977.9
            ],
            [
              448.0,
              960.0
            ],
            [
              366.1,
              960.0
            ],
            [
              364.8,
              951.0
            ],
            [
              343.0,
              957.4
            ]
          ]
        ]
      }
    }
  ]
}