{
  "type": "FeatureCollection",
  "properties": {
    "disclaimer": "AI-estimated / approximate parcel boundaries for visualisation and planning exploration only. NOT legally valid cadastral boundaries. Areas and perimeters are derived from pixel geometry and either embedded GeoTIFF spatial tags (when present) or an assumed ground sample distance (GSD) \u2014 see area_source in the response.",
    "coordinate_system": "image_pixels",
    "image_width_px": 500,
    "image_height_px": 375,
    "gsd_m_per_px": 0.1,
    "area_source": "estimated",
    "georeferencing": {
      "georeferenced": false,
      "gsd_x": null,
      "gsd_y": null,
      "gsd": null,
      "crs_hint": null,
      "detail": "No embedded spatial information found.",
      "rotated": false,
      "source": "none"
    }
  },
  "features": [
    {
      "type": "Feature",
      "properties": {
        "parcel_id": "P-001",
        "area_m2_estimated": 31.11,
        "area_ha_estimated": 0.0031,
        "perimeter_m_estimated": 31.35,
        "confidence_approx": 0.676,
        "method": "classical-watershed-contours",
        "disclaimer": "AI-estimated/approximate \u2014 not a legal cadastral boundary."
      },
      "geometry": {
        "type": "Polygon",
        "coordinates": [
          [
            [
              211.0,
              89.0
            ],
            [
              201.0,
              91.0
            ],
            [
              198.0,
              104.0
            ],
            [
              189.0,
              103.0
            ],
            [
              174.0,
              118.0
            ],
            [
              191.0,
              144.0
            ],
            [
              186.0,
              146.0
            ],
            [
              190.0,
              170.0
            ],
            [
              243.0,
              163.0
            ],
            [
              242.0,
              143.0
            ],
            [
              205.0,
              142.0
            ],
            [
              207.0,
              124.0
            ],
            [
              217.0,
              125.0
            ],
            [
              237.0,
              108.0
            ],
            [
              233.0,
              99.0
            ],
            [
              211.0,
              89.0
            ]
          ]
        ]
      }
    },
    {
      "type": "Feature",
      "properties": {
        "parcel_id": "P-002",
        "area_m2_estimated": 23.98,
        "area_ha_estimated": 0.0024,
        "perimeter_m_estimated": 46.69,
        "confidence_approx": 0.48,
        "method": "classical-watershed-contours",
        "disclaimer": "AI-estimated/approximate \u2014 not a legal cadastral boundary."
      },
      "geometry": {
        "type": "Polygon",
        "coordinates": [
          [
            [
              1.0,
              130.0
            ],
            [
              13.0,
              156.0
            ],
            [
              1.0,
              165.0
            ],
            [
              16.0,
              161.0
            ],
            [
              40.0,
              195.0
            ],
            [
              17.0,
              206.0
            ],
            [
              15.0,
              222.0
            ],
            [
              1.0,
              222.0
            ],
            [
              1.0,
              235.0
            ],
            [
              27.0,
              246.0
            ],
            [
              38.0,
              277.0
            ],
            [
              48.0,
              263.0
            ],
            [
              36.0,
              250.0
            ],
            [
              46.0,
              238.0
            ],
            [
              70.0,
              235.0
            ],
            [
              36.0,
              231.0
            ],
            [
              57.0,
              211.0
            ],
            [
              1.0,
              130.0
            ]
          ]
        ]
      }
    },
    {
      "type": "Feature",
      "properties": {
        "parcel_id": "P-003",
        "area_m2_estimated": 18.98,
        "area_ha_estimated": 0.0019,
        "perimeter_m_estimated": 32.47,
        "confidence_approx": 0.537,
        "method": "classical-watershed-contours",
        "disclaimer": "AI-estimated/approximate \u2014 not a legal cadastral boundary."
      },
      "geometry": {
        "type": "Polygon",
        "coordinates": [
          [
            [
              46.0,
              270.0
            ],
            [
              39.0,
              278.0
            ],
            [
              42.0,
              316.0
            ],
            [
              36.0,
              343.0
            ],
            [
              31.0,
              321.0
            ],
            [
              25.0,
              327.0
            ],
            [
              31.0,
              341.0
            ],
            [
              16.0,
              346.0
            ],
            [
              27.0,
              352.0
            ],
            [
              21.0,
              373.0
            ],
            [
              51.0,
              373.0
            ],
            [
              49.0,
              359.0
            ],
            [
              65.0,
              342.0
            ],
            [
              51.0,
              331.0
            ],
            [
              57.0,
              301.0
            ],
            [
              45.0,
              289.0
            ],
            [
              46.0,
              270.0
            ]
          ]
        ]
      }
    },
    {
      "type": "Feature",
      "properties": {
        "parcel_id": "P-004",
        "area_m2_estimated": 16.92,
        "area_ha_estimated": 0.0017,
        "perimeter_m_estimated": 25.29,
        "confidence_approx": 0.611,
        "method": "classical-watershed-contours",
        "disclaimer": "AI-estimated/approximate \u2014 not a legal cadastral boundary."
      },
      "geometry": {
        "type": "Polygon",
        "coordinates": [
          [
            [
              124.0,
              113.0
            ],
            [
              112.0,
              119.0
            ],
            [
              105.0,
              116.0
            ],
            [
              113.0,
              123.0
            ],
            [
              109.0,
              129.0
            ],
            [
              95.0,
              112.0
            ],
            [
              90.0,
              116.0
            ],
            [
              79.0,
              113.0
            ],
            [
              66.0,
              124.0
            ],
            [
              70.0,
              141.0
            ],
            [
              87.0,
              143.0
            ],
            [
              77.0,
              153.0
            ],
            [
              88.0,
              162.0
            ],
            [
              87.0,
              171.0
            ],
            [
              103.0,
              162.0
            ],
            [
              109.0,
              133.0
            ],
            [
              130.0,
              119.0
            ],
            [
              124.0,
              119.0
            ],
            [
              124.0,
              113.0
            ]
          ]
        ]
      }
    },
    {
      "type": "Feature",
      "properties": {
        "parcel_id": "P-005",
        "area_m2_estimated": 16.79,
        "area_ha_estimated": 0.0017,
        "perimeter_m_estimated": 20.46,
        "confidence_approx": 0.734,
        "method": "classical-watershed-contours",
        "disclaimer": "AI-estimated/approximate \u2014 not a legal cadastral boundary."
      },
      "geometry": {
        "type": "Polygon",
        "coordinates": [
          [
            [
              173.0,
              306.0
            ],
            [
              141.0,
              309.0
            ],
            [
              131.0,
              317.0
            ],
            [
              126.0,
              333.0
            ],
            [
              133.0,
              346.0
            ],
            [
              133.0,
              355.0
            ],
            [
              155.0,
              359.0
            ],
            [
              158.0,
              347.0
            ],
            [
              146.0,
              343.0
            ],
            [
              159.0,
              342.0
            ],
            [
              154.0,
              337.0
            ],
            [
              158.0,
              334.0
            ],
            [
              168.0,
              338.0
            ],
            [
              173.0,
              331.0
            ],
            [
              170.0,
              326.0
            ],
            [
              174.0,
              321.0
            ],
            [
              173.0,
              306.0
            ]
          ]
        ]
      }
    },
    {
      "type": "Feature",
      "properties": {
        "parcel_id": "P-006",
        "area_m2_estimated": 14.72,
        "area_ha_estimated": 0.0015,
        "perimeter_m_estimated": 19.09,
        "confidence_approx": 0.734,
        "method": "classical-watershed-contours",
        "disclaimer": "AI-estimated/approximate \u2014 not a legal cadastral boundary."
      },
      "geometry": {
        "type": "Polygon",
        "coordinates": [
          [
            [
              428.0,
              83.0
            ],
            [
              425.0,
              93.0
            ],
            [
              418.0,
              95.0
            ],
            [
              417.0,
              107.0
            ],
            [
              425.0,
              105.0
            ],
            [
              436.0,
              109.0
            ],
            [
              439.0,
              115.0
            ],
            [
              435.0,
              122.0
            ],
            [
              441.0,
              124.0
            ],
            [
              443.0,
              120.0
            ],
            [
              450.0,
              135.0
            ],
            [
              464.0,
              123.0
            ],
            [
              463.0,
              118.0
            ],
            [
              472.0,
              106.0
            ],
            [
              465.0,
              101.0
            ],
            [
              467.0,
              98.0
            ],
            [
              439.0,
              81.0
            ],
            [
              438.0,
              86.0
            ],
            [
              428.0,
              83.0
            ]
          ]
        ]
      }
    },
    {
      "type": "Feature",
      "properties": {
        "parcel_id": "P-007",
        "area_m2_estimated": 10.4,
        "area_ha_estimated": 0.001,
        "perimeter_m_estimated": 15.63,
        "confidence_approx": 0.749,
        "method": "classical-watershed-contours",
        "disclaimer": "AI-estimated/approximate \u2014 not a legal cadastral boundary."
      },
      "geometry": {
        "type": "Polygon",
        "coordinates": [
          [
            [
              24.0,
              17.0
            ],
            [
              18.0,
              24.0
            ],
            [
              17.0,
              31.0
            ],
            [
              9.0,
              32.0
            ],
            [
              4.0,
              39.0
            ],
            [
              1.0,
              38.0
            ],
            [
              1.0,
              52.0
            ],
            [
              18.0,
              57.0
            ],
            [
              12.0,
              66.0
            ],
            [
              17.0,
              70.0
            ],
            [
              26.0,
              60.0
            ],
            [
              35.0,
              39.0
            ],
            [
              43.0,
              34.0
            ],
            [
              24.0,
              17.0
            ]
          ]
        ]
      }
    },
    {
      "type": "Feature",
      "properties": {
        "parcel_id": "P-008",
        "area_m2_estimated": 10.09,
        "area_ha_estimated": 0.001,
        "perimeter_m_estimated": 13.54,
        "confidence_approx": 0.813,
        "method": "classical-watershed-contours",
        "disclaimer": "AI-estimated/approximate \u2014 not a legal cadastral boundary."
      },
      "geometry": {
        "type": "Polygon",
        "coordinates": [
          [
            [
              286.0,
              298.0
            ],
            [
              288.0,
              327.0
            ],
            [
              300.0,
              327.0
            ],
            [
              303.0,
              333.0
            ],
            [
              307.0,
              333.0
            ],
            [
              309.0,
              329.0
            ],
            [
              310.0,
              329.0
            ],
            [
              308.0,
              327.0
            ],
            [
              310.0,
              325.0
            ],
            [
              324.0,
              323.0
            ],
            [
              321.0,
              301.0
            ],
            [
              312.0,
              301.0
            ],
            [
              300.0,
              296.0
            ],
            [
              286.0,
              298.0
            ]
          ]
        ]
      }
    },
    {
      "type": "Feature",
      "properties": {
        "parcel_id": "P-009",
        "area_m2_estimated": 9.7,
        "area_ha_estimated": 0.001,
        "perimeter_m_estimated": 17.28,
        "confidence_approx": 0.656,
        "method": "classical-watershed-contours",
        "disclaimer": "AI-estimated/approximate \u2014 not a legal cadastral boundary."
      },
      "geometry": {
        "type": "Polygon",
        "coordinates": [
          [
            [
              184.0,
              221.0
            ],
            [
              157.0,
              224.0
            ],
            [
              149.0,
              220.0
            ],
            [
              144.0,
              226.0
            ],
            [
              136.0,
              228.0
            ],
            [
              132.0,
              248.0
            ],
            [
              143.0,
              256.0
            ],
            [
              154.0,
              252.0
            ],
            [
              158.0,
              254.0
            ],
            [
              160.0,
              246.0
            ],
            [
              168.0,
              244.0
            ],
            [
              161.0,
              228.0
            ],
            [
              170.0,
              225.0
            ],
            [
              170.0,
              232.0
            ],
            [
              180.0,
              230.0
            ],
            [
              184.0,
              221.0
            ]
          ]
        ]
      }
    }
  ]
}